"","name","city","country","region","members","fullurl","created","past_events","upcoming_events","visibility","last_event","lat","lon"
"1","Customer Data Science LA","Santa Monica","USA","US/Canada",617,"https://www.meetup.com/Customer-Data-Science-LA/",2019-06-20,14,0,"public_limited",2020-10-01,34.02,-118.5
"2","ODSC Denver Data Science","Denver","USA","US/Canada",173,"https://www.meetup.com/ODSC-Denver-Data-Science/",2019-11-22,71,3,"public",2021-07-20,39.7,-105.08
"3","Ulmer Data Science Stammtisch","Ulm","Germany","Europe",404,"https://www.meetup.com/Ulmer-Data-Science-Stammtisch/",2017-12-06,10,0,"public",2019-11-25,48.4,9.97
"4","ODSC Vancouver Data Science","Vancouver","Canada","US/Canada",375,"https://www.meetup.com/ODSC-Vancouver-Data-Science/",2019-11-22,62,3,"public",2021-07-20,49.28,-123.04
"5","Western Mass Statistics and Data Science","Northampton","USA","US/Canada",530,"https://www.meetup.com/Pioneer-Valley-and-Five-College-R-Statistical-Meetup/",2013-01-02,209,0,"public",2020-02-27,42.33,-72.68
"6","Clarksville Data Science and R Users Meetup Group","Clarksville","USA","US/Canada",26,"https://www.meetup.com/Clarksville-Data-Science-and-R-Users-Meetup-Group/",2019-06-13,2,0,"public",2019-08-11,36.56,-87.41
"7","R UseR Group at Harvard Data Science Initiative","Cambridge","USA","US/Canada",62,"https://www.meetup.com/r-user-group-at-harvard-data-science-initiative/",2021-05-25,3,3,"public",2021-07-14,42.38,-71.13
"8","Bangalore Data Science and Analytics Using R Meetup","Bangalore","India","Asia",223,"https://www.meetup.com/Bangalore-Data-Science-and-Analytics-Using-R-Meetup/",2018-11-09,0,0,"public",1970-01-01,12.97,77.56
"9","Mad Over Data | Mumbai","Mumbai","India","Asia",215,"https://www.meetup.com/Mad-Over-Data/",2020-01-02,4,0,"public",2020-08-16,18.96,72.82
"10","Mad Over Data | Bangalore","Bangalore","India","Asia",432,"https://www.meetup.com/Mad-Over-Data-Bangalore/",2020-01-23,5,0,"public",2020-08-16,12.97,77.56
"11","Mad Over Data | Delhi NCR","Delhi","India","Asia",420,"https://www.meetup.com/Mad-Over-Data-Delhi-NCR/",2020-01-07,6,0,"public",2020-08-16,28.67,77.21
"12","BerlinR - an R group focused on modern data science","Berlin","Germany","Europe",627,"https://www.meetup.com/BerlinR-R-users-group/",2018-10-23,8,0,"public",2020-02-05,52.52,13.38
"13","Greater Cleveland Python/Julia/R Data Science Group","Cleveland","USA","US/Canada",585,"https://www.meetup.com/Greater-Cleveland-SciPy-Julia-R-Data-Science-Group/",2016-03-12,33,0,"public_limited",2019-08-03,41.47,-81.58
"14","Analytics, Data Science  & ML- R, Python,Tableau & Power BI","Bangalore","India","Asia",3618,"https://www.meetup.com/Analytics-Data-Science-R-Tableau-Power-BI/",2017-10-29,35,0,"public",2018-10-20,12.97,77.56
"15","Miami R User Group","Miami","USA","US/Canada",16,"https://www.meetup.com/miami-r-user-group/",2021-04-28,0,4,"public",1970-01-01,25.78,-80.2
"16","Master Cohorts","Nairobi","Kenya","Africa",266,"https://www.meetup.com/Master-Data-Science/",2020-04-03,1,0,"public",2020-04-25,-1.29,36.82
"17","R User Group Eindhoven","Eindhoven","Netherlands","Europe",104,"https://www.meetup.com/R-User-Group-Eindhoven/",2019-02-28,11,0,"public",2021-01-24,51.44,5.47
"18","Las Vegas R User Group","Las Vegas","USA","US/Canada",30,"https://www.meetup.com/Las-Vegas-R-User-Group/",2018-09-28,0,0,"public",1970-01-01,36.02,-115.15
"19","Seoul R Meetup Group","Seoul","Korea (South)","Asia",247,"https://www.meetup.com/seoul-r-meetup/",2020-08-08,8,0,"public",2021-04-14,37.56,126.99
"20","Montreal R User Group","Montréal","Canada","US/Canada",1639,"https://www.meetup.com/Montreal-R-User-Group/",2012-03-13,111,4,"public",2021-07-15,45.53,-73.6
"21","Colchester R Meetup","Colchester","United Kingdom","Europe",289,"https://www.meetup.com/Colchester-R-Meetup/",2018-04-16,16,0,"public",2020-10-22,51.88,0.9
"22","LA R users group","Santa Monica","USA","US/Canada",2366,"https://www.meetup.com/Los-Angeles-R-Users-Group-Data-Science/",2009-03-21,129,0,"public",2021-05-19,34.02,-118.5
"23","University of Ibadan R Users Group (UI RUG)","Ibadan","Nigeria","Africa",91,"https://www.meetup.com/University-of-Ibadan-R-Users-Group-UI-RUG/",2020-02-14,1,0,"public",2020-03-07,7.38,3.93
"24","Eskisehir R Users Group & ESTÜ Veri Bilimi Kulübü","Eskisehir","Turkey","Europe",102,"https://www.meetup.com/Eskisehir-R-Users-Group-Data-Science-Society/",2020-02-28,11,0,"public",2021-04-16,39.79,30.52
"25","Applied R Munich","München","Germany","Europe",1179,"https://www.meetup.com/Applied-R-Munich/",2015-10-16,14,0,"public",2020-12-11,48.14,11.58
"26","Poznan R Users Group (PAZUR)","Poznan","Poland","Europe",622,"https://www.meetup.com/Poznan-R-User-Group-PAZUR/",2015-11-27,23,0,"public",2020-01-30,52.4,16.9
"27","Phoenix R User Group","Phoenix","USA","US/Canada",882,"https://www.meetup.com/Phoenix-R-User-Group/",2016-04-16,18,0,"public",2018-08-24,33.45,-112.07
"28","Chico R Users Group","Chico","USA","US/Canada",58,"https://www.meetup.com/Chico-R-Users-Group/",2015-12-07,86,0,"public",2020-08-12,39.79,-121.85
"29","Cebu R Users Group (CRUG)","Cebu","Philippines","Asia",58,"https://www.meetup.com/Cebu-R-Users-Group-CRUG/",2014-09-17,2,0,"public_limited",2015-03-19,10.32,123.9
"30","The Chicago R User Group (CRUG)","Chicago","USA","US/Canada",3868,"https://www.meetup.com/Chicago-R-User-Group/",2010-04-05,81,0,"public",2021-07-14,41.88,-87.64
"31","SoCal R Users Group (SoCal RUG)","Irvine","USA","US/Canada",799,"https://www.meetup.com/SOCAL-RUG/",2014-12-17,102,1,"public",2021-07-15,33.65,-117.82
"32","R User Group Kano","Kano","Nigeria","Africa",23,"https://www.meetup.com/r-user-group-kano/",2020-11-28,1,0,"public",2021-01-17,12,8.52
"33","Oxford R User Group","Oxford","United Kingdom","Europe",584,"https://www.meetup.com/Oxford-R-User-Group/",2017-08-17,23,0,"public",2020-02-03,51.75,-1.26
"34","Rhus - useR group","Århus","Denmark","Europe",237,"https://www.meetup.com/Rhus-useR-group/",2015-01-19,5,0,"public",2019-12-03,56.16,10.21
"35","Bauru R Big Data Analytics Meetup","Bauru","Brazil","Latin America",50,"https://www.meetup.com/Bauru-R-Big-Data-Analytics-Meetup/",2016-05-22,0,0,"public",1970-01-01,-22.33,-49.08
"36","Lansing Area R Users Group","East Lansing","USA","US/Canada",219,"https://www.meetup.com/Lansing-Area-R-Users-Group/",2012-01-24,31,0,"public",2020-03-09,42.75,-84.47
"37","Milwaukee R Meetup","Milwaukee","USA","US/Canada",298,"https://www.meetup.com/Milwaukee-R-Meetup/",2015-06-05,9,0,"public",2020-03-19,43.04,-87.92
"38","Vancouver Data Visualization","Vancouver","Canada","US/Canada",4378,"https://www.meetup.com/Vancouver-Data-Visualization/",2011-03-14,44,0,"public",2021-02-04,49.28,-123.11
"39","Abuja R User Group","Abuja","Nigeria","Africa",431,"https://www.meetup.com/Abuja-R-User-Group-Meetup/",2019-10-16,14,0,"public",2021-06-12,9.18,7.17
"40","Bhavnagar Data Analysis Meetup","Bhavnagar","India","Asia",35,"https://www.meetup.com/Bhavnagar-Data-Analysis-Meetup/",2014-06-15,0,0,"public",1970-01-01,21.79,72.13
"41","Bengaluru R UseR Group (BRUG)","Bangalore","India","Asia",1858,"https://www.meetup.com/BengaluRu-use-R-gRoup/",2018-08-28,18,0,"public",2021-02-28,12.97,77.56
"42","PhillyR","Philadelphia","USA","US/Canada",868,"https://www.meetup.com/PhillyR/",2016-04-19,18,0,"public",2019-11-15,39.96,-75.2
"43","Data Analytics GDL User Group","Guadalajara","Mexico","Latin America",319,"https://www.meetup.com/Data-Analytics-GDL-User-Group/",2017-04-13,2,0,"public",2017-12-08,20.67,-103.35
"44","San Diego Data Science & R Users Group","Del Mar","USA","US/Canada",906,"https://www.meetup.com/San-Diego-Data-Science-R-Users-Group/",2009-10-14,32,0,"public",2017-03-31,32.96,-117.23
"45","Microsoft Advanced Analytics User Group","Mechelen","Belgium","Europe",761,"https://www.meetup.com/Microsoft-Advanced-Analytics-User-Group/",2017-11-17,13,0,"public",2019-04-15,51.03,4.47
"46","Chile Elastic User Group","Santiago","Chile","Latin America",39,"https://www.meetup.com/chile-elastic-user-group/",2021-02-18,4,0,"public",2021-06-08,-33.46,-70.64
"47","R User Group Nepal","Kathmandu","Nepal","Asia",224,"https://www.meetup.com/rugnepal/",2018-09-16,7,0,"public",2021-07-21,27.71,85.31
"48","CaRdiff - the Cardiff R User Group","Cardiff","United Kingdom","Europe",763,"https://www.meetup.com/Cardiff-R-User-Group/",2014-12-19,144,0,"public",2021-07-15,51.48,-3.18
"49","Central Iowa R User Group","Des Moines","USA","US/Canada",716,"https://www.meetup.com/Central-Iowa-R-User-Group/",2015-06-15,276,1,"public",2021-07-17,41.6,-93.63
"50","Dar Es Salaam R Users Group","Dar es Salaam","Tanzania","Africa",855,"https://www.meetup.com/DarEs-Salaam-R-users/",2015-04-30,2,0,"public",2020-07-23,-6.82,39.28
"51","Detroit useR Group (R Programming Language)","Birmingham","USA","US/Canada",315,"https://www.meetup.com/Detroit-useR-Group-R-Programming-Language/",2013-06-19,6,0,"public",2017-01-08,42.54,-83.21
"52","Tampa R Users Group","Tampa","USA","US/Canada",534,"https://www.meetup.com/Tampa-R-Users-Group/",2017-07-28,30,0,"public",2020-08-25,27.98,-82.34
"53","Western Australia R Group (WARG)","Perth","Australia","Australia",183,"https://www.meetup.com/Western-Australia-R-Group-WARG/",2014-06-27,9,0,"public",2016-07-21,-31.96,115.84
"54","Berlin R Users Group","Berlin","Germany","Europe",2234,"https://www.meetup.com/Berlin-R-Users-Group/",2015-01-04,62,0,"public",2021-07-14,52.52,13.38
"55","R Users & R-Ladies Warsaw (Spotkania Entuzjastów R)","Warsaw","Poland","Europe",2845,"https://www.meetup.com/Spotkania-Entuzjastow-R-Warsaw-R-Users-Group-Meetup/",2014-10-06,121,0,"public",2021-06-23,52.26,21.02
"56","Nairobi R Users Group","Nairobi","Kenya","Africa",50,"https://www.meetup.com/Nairobi-R-Users-Group/",2017-03-30,0,0,"public",1970-01-01,-1.29,36.82
"57","Cairo R Users Group","Cairo","Egypt","Africa",2248,"https://www.meetup.com/Cairo-R-Users-Group/",2015-04-30,5,0,"public",2020-01-06,30.06,31.25
"58","Johannesburg R User Group (R Programming Language)","Johannesburg","South Africa","Africa",904,"https://www.meetup.com/Joburg-R-Users-Group/",2015-05-03,12,0,"public",2020-12-03,-26.19,28.04
"59","Meetup R Nantes","Nantes","France","Europe",716,"https://www.meetup.com/Meetup-R-Nantes/",2016-06-27,23,0,"public",2019-12-02,47.23,-1.57
"60","Budapest Users of R Network","Budapest","Hungary","Europe",1681,"https://www.meetup.com/Budapest-Users-of-R-Network/",2013-08-11,57,0,"public",2020-01-29,47.51,19.08
"61","Exeter R Users Group (Exeter, Devon, England)","Exeter","United Kingdom","Europe",246,"https://www.meetup.com/Exeter-R-Users-Group-Exeter-Devon-England/",2014-01-14,16,0,"public",2019-09-09,50.73,-3.53
"62","STWUR - Wroclaw R Users Group Meetup","Wroclaw","Poland","Europe",1116,"https://www.meetup.com/Wroclaw-R-Users-Group/",2017-01-17,32,0,"public",2020-09-24,51.11,17.03
"63","Cork (Ireland) R-Users Group","Cork","Ireland","Europe",670,"https://www.meetup.com/Cork-Ireland-R-Users-Group/",2015-07-01,52,0,"public",2020-02-10,51.9,-8.47
"64","NottinghamR - Nottingham R Users Group","Nottingham","United Kingdom","Europe",390,"https://www.meetup.com/NottinghamR-Nottingham-R-Users-Group/",2016-01-08,8,0,"public_limited",2020-11-04,52.97,-1.18
"65","St. Petersburg R User Group","St. Petersburg","Russia","Europe",1125,"https://www.meetup.com/St-Petersburg-R-User-Group/",2015-03-11,17,0,"public",2020-12-11,59.93,30.32
"66","Bmore UseR Group","Baltimore","USA","US/Canada",143,"https://www.meetup.com/Bmore-UseR-Group/",2016-08-26,1,0,"public",2017-09-20,39.29,-76.62
"67","Pittsburgh useR Group","Pittsburgh","USA","US/Canada",581,"https://www.meetup.com/Pittsburgh-useR-Group/",2013-03-26,38,0,"public",2021-03-10,40.45,-79.93
"68","Columbus useR Group","Columbus","USA","US/Canada",197,"https://www.meetup.com/Columbus-useR-Group/",2014-03-17,3,0,"public",2015-01-28,39.94,-82.98
"69","Greater Boston useR Group (R Programming Language)","Boston","USA","US/Canada",4851,"https://www.meetup.com/Boston-useR/",2011-02-10,79,2,"public",2021-06-28,42.34,-71.06
"70","Oman R Users","Muscat","Oman","Asia",24,"https://www.meetup.com/oman-r-user/",2021-07-03,0,1,"public",1970-01-01,23.61,58.54
"71","Abidjan R users Meetup","Abidjan","Ivory Coast","Africa",600,"https://www.meetup.com/Abidjan-R-users-Meetup/",2018-03-27,9,0,"public",2020-04-25,5.33,-4.03
"72","Riyadh UseR Group","Riyadh","Saudi Arabia","Asia",396,"https://www.meetup.com/Riyadh-UseR-Group/",2016-12-06,1,0,"public",2016-12-15,24.65,46.77
"73","Kiel R User Group","Kiel","Germany","Europe",20,"https://www.meetup.com/Kiel-R-User-Group/",2019-11-22,0,0,"public",1970-01-01,54.32,10.12
"74","Greater Toronto Area (GTA) R User Group","Toronto","Canada","US/Canada",1484,"https://www.meetup.com/Greater-Toronto-Area-GTA-R-Users-Group/",2010-10-07,37,0,"public",2020-12-09,43.66,-79.39
"75","Waco R User Group","Waco","USA","US/Canada",4,"https://www.meetup.com/waco-r-user-group/",2021-05-20,0,0,"public",1970-01-01,31.55,-97.14
"76","Santa Barbara R Users Group","Santa Barbara","USA","US/Canada",446,"https://www.meetup.com/Santa-Barbara-R-Users-Group/",2013-02-27,27,0,"public",2021-04-21,34.42,-119.71
"77","Adelaide R Users Group","Adelaide","Australia","Australia",315,"https://www.meetup.com/Adelaide-R-Users/",2016-11-07,4,0,"public",2019-09-25,-34.93,138.6
"78","Boston R/Bioconductor for Genomics","Boston","USA","US/Canada",822,"https://www.meetup.com/Boston-R-Bioconductor-for-genomics/",2016-08-03,21,0,"public",2020-02-05,42.34,-71.09
"79","Bogotá R Users Group Meetup (Shiny data apps)","Bogotá","Colombia","Latin America",153,"https://www.meetup.com/Bogota-R-Users-Group-Meetup-Shiny-data-apps/",2014-12-27,1,0,"public",2015-01-22,4.63,-74.09
"80","DuPage R Meetup","Lisle","USA","US/Canada",235,"https://www.meetup.com/DuPage-R-Meetup/",2018-09-18,7,0,"public",2021-07-21,41.79,-88.08
"81","New York R User Group","New York","USA","US/Canada",1052,"https://www.meetup.com/New-York-R-Users-Group/",2013-08-24,43,3,"public",2016-11-02,40.76,-73.99
"82","Indore Hadoop User Group","Indore","India","Asia",458,"https://www.meetup.com/Indore-Hadoop-User-Group/",2014-08-01,0,0,"public",1970-01-01,22.72,75.86
"83","CopenhagenR - useR Group","Copenhagen","Denmark","Europe",1383,"https://www.meetup.com/CopenhagenR-useR-Group/",2013-09-03,36,0,"public",2021-01-14,55.68,12.57
"84","Trenton R Users (TRU)","Trenton","USA","US/Canada",501,"https://www.meetup.com/TRUgroup/",2015-01-27,76,6,"public",2021-06-19,40.22,-74.76
"85","Central Illinois SAS® User Group Meetup","Springfield","USA","US/Canada",107,"https://www.meetup.com/Central-Illinois-SAS-User-Group-Meetup/",2014-11-14,33,0,"public",2021-07-08,39.8,-89.65
"86","Zurich R User Group","Zürich","Switzerland","Europe",1936,"https://www.meetup.com/Zurich-R-User-Group/",2015-11-18,32,0,"public",2020-10-29,47.38,8.54
"87","Mastering R at MI^2","Warsaw","Poland","Europe",101,"https://www.meetup.com/Mastering-R-at-MI-2/",2018-11-06,1,0,"public",2018-12-03,52.26,21.02
"88","Brasília UseR Meetup (Linguagem de Programação ""R"")","Brasília","Brazil","Latin America",595,"https://www.meetup.com/Brasilia-UseR-Meetup/",2015-07-05,5,0,"public",2017-09-26,-15.78,-47.91
"89","Winnipeg R User Group","Winnipeg","Canada","US/Canada",135,"https://www.meetup.com/Winnipeg-R-User-Group/",2018-11-03,13,0,"public",2021-06-17,49.83,-97.17
"90","Austin R User Group","Austin","USA","US/Canada",1635,"https://www.meetup.com/Austin-R-User-Group/",2012-01-16,51,0,"public",2019-11-20,30.27,-97.74
"91","Inland Northwest R User Group (INRUG)","Spokane","USA","US/Canada",163,"https://www.meetup.com/Inland-Northwest-R-User-Group-INRUG/",2015-03-29,37,0,"public",2021-05-15,47.67,-117.41
"92","Grupo de Usuarios de R de Madrid","Madrid","Spain","Europe",2534,"https://www.meetup.com/Grupo-de-Usuarios-de-R-de-Madrid/",2015-02-20,44,0,"public",2021-06-24,40.42,-3.71
"93","Cleveland R User Group","Independence","USA","US/Canada",856,"https://www.meetup.com/Cleveland-UseR-Group/",2012-01-16,90,1,"public",2021-07-17,41.38,-81.66
"94","Kansas City R Users Group","Kansas City","USA","US/Canada",1007,"https://www.meetup.com/Kansas-City-R-Users-Group/",2013-12-02,87,5,"public",2021-07-10,39.08,-94.58
"95","Tunis R User Group","Tunis","Tunisia","Africa",48,"https://www.meetup.com/tunis-r-user-group/",2021-06-11,2,0,"public",2021-07-09,36.84,10.22
"96","IndyUseR Group","Indianapolis","USA","US/Canada",602,"https://www.meetup.com/Indy-useR-Group/",2013-06-28,72,2,"public",2021-05-18,39.79,-86.16
"97","KNIME User Group UK","London","United Kingdom","Europe",413,"https://www.meetup.com/KNIME-User-Group-UK/",2013-11-29,39,0,"public",2021-07-07,51.58,-0.16
"98","Meetup de Grupo de Usuarios de R de Málaga","Málaga","Spain","Europe",181,"https://www.meetup.com/Meetup-de-Grupo-de-Usuarios-de-R-de-Malaga/",2019-02-15,11,0,"public",2021-02-24,36.72,-4.42
"99","Patra's R Users Group","Pátrai","Greece","Europe",140,"https://www.meetup.com/Patras-R-Users-Group/",2015-05-07,3,0,"public",2015-10-07,38.24,21.73
"100","ZagReb","Zagreb","Croatia","Europe",273,"https://www.meetup.com/zagreb-r-group/",2017-03-30,5,0,"public",2018-04-04,45.8,15.97
"101","Grupo de Usuários de R em Ouro Preto","Ouro Preto","Brazil","Latin America",35,"https://www.meetup.com/Grupo-de-Usuarios-de-R-em-Ouro-Preto/",2020-02-04,3,0,"public",2020-03-17,-20.38,-43.51
"102","Campinas R Users Meetup","Campinas","Brazil","Latin America",326,"https://www.meetup.com/Campinas-R-Users-Meetup/",2014-11-19,10,0,"public",2015-11-18,-22.91,-47.08
"103","UVa R Users Group","Charlottesville","USA","US/Canada",594,"https://www.meetup.com/UVa-R-Users-Group/",2014-08-04,23,0,"public",2019-08-27,38,-78.47
"104","Panama R User's Group","Panamá","Panama","Latin America",569,"https://www.meetup.com/Panama-R-Users-Group/",2017-02-13,18,0,"public",2020-03-28,8.97,-79.53
"105","Ann Arbor R User Group","Ann Arbor","USA","US/Canada",786,"https://www.meetup.com/Ann-Arbor-R-User-Group/",2014-05-26,69,0,"public",2020-12-10,42.26,-83.72
"106","Dallas R Users Group","Dallas","USA","US/Canada",2251,"https://www.meetup.com/Dallas-R-Users-Group/",2011-02-19,87,0,"public",2021-04-22,32.93,-96.79
"107","The México City R Users Group","México City","Mexico","Latin America",160,"https://www.meetup.com/The-Mexico-City-R-Users-Group/",2014-02-05,4,0,"public",2015-12-02,19.43,-99.14
"108","Utah County R User Group","Provo","USA","US/Canada",112,"https://www.meetup.com/utah-county-rug/",2019-01-22,6,0,"public",2020-02-27,40.23,-111.69
"109","Alteryx Meet and Greet Brisbane","Brisbane","Australia","Australia",19,"https://www.meetup.com/Alteryx-User-Group-Brisbane/",2016-04-24,7,0,"public",2019-06-12,-27.46,153.02
"110","Wellington R Users Group (WRUG)","Wellington","New Zealand","Australia",349,"https://www.meetup.com/Wellington-R-Users-Group-WRUG/",2013-09-04,12,0,"public",2018-02-27,-41.28,174.78
"111","R User Group - Philippines","Manila","Philippines","Asia",1484,"https://www.meetup.com/R-User-Group-Philippines/",2013-08-20,90,1,"public",2021-07-21,14.62,120.97
"112","Greater Portland useR Group (R programming language)","Portland","USA","US/Canada",189,"https://www.meetup.com/Greater-Portland-useR-Group/",2018-08-10,15,0,"public",2021-07-01,43.66,-70.26
"113","Sevilla R Users","Sevilla","Spain","Europe",612,"https://www.meetup.com/Sevilla-R-users/",2017-03-13,27,0,"public",2020-06-24,37.4,-5.98
"114","Lucerne R User Group","Luzern","Switzerland","Europe",93,"https://www.meetup.com/Lucerne-R-User-Group/",2020-04-08,9,0,"public",2021-05-26,47.06,8.3
"115","Portsmouth R User Group Meetup","Portsmouth","United Kingdom","Europe",188,"https://www.meetup.com/Portsmouth-R-User-Group/",2018-06-26,10,0,"public",2021-01-14,50.81,-1.09
"116","Prague R Meetup Group","Prague","Czech Republic","Europe",662,"https://www.meetup.com/Prague-R-Meetup-Group/",2015-03-16,8,0,"public",2019-05-22,50.08,14.43
"117","AalborgRUG","Aalborg","Denmark","Europe",227,"https://www.meetup.com/AalborgRUG/",2017-09-30,17,0,"public",2021-06-03,57.03,9.93
"118","R User Group Finland","Helsinki","Finland","Europe",257,"https://www.meetup.com/R-User-Group-Finland/",2015-08-31,1,0,"public",2015-09-30,60.17,24.94
"119","Charlotte R Users Group","Charlotte","USA","US/Canada",868,"https://www.meetup.com/Charlotte-R-Users-Group/",2013-12-17,32,0,"public",2020-04-21,35.23,-80.84
"120","San Carlos R User Group","Quesada","Costa Rica","Latin America",640,"https://www.meetup.com/San-Carlos-R-User-Group/",2016-01-20,35,0,"public",2019-08-10,10.33,-84.44
"121","Waco R Users Group (OLD)","Waco","USA","US/Canada",6,"https://www.meetup.com/waco-r-users-group/",2021-05-20,0,0,"public",1970-01-01,31.55,-97.14
"122","Salt Lake City R Users Group","Salt Lake City","USA","US/Canada",1396,"https://www.meetup.com/slc-rug/",2017-11-06,34,1,"public",2021-05-05,40.76,-111.9
"123","Oslo useR! Group","Oslo","Norway","Europe",1763,"https://www.meetup.com/Oslo-useR-Group/",2015-02-11,39,1,"public",2021-05-20,59.91,10.75
"124","RVA R User's Group.","Richmond","USA","US/Canada",50,"https://www.meetup.com/RVA-R-Users-Group/",2018-01-29,9,0,"public",2019-12-18,37.54,-77.44
"125","Malaysia R User Public Group","Kuala Lumpur","Malaysia","Asia",266,"https://www.meetup.com/Malaysia-R-User-Group/",2018-09-25,4,0,"public",2020-11-21,3.16,101.71
"126","Tecate BC México R Users Group Meetup","Tecate","Mexico","Latin America",17,"https://www.meetup.com/Tecate-BC-Mexico-R-Users-Group-Meetup/",2014-09-11,0,0,"public",1970-01-01,32.57,-116.63
"127","San Diego R Users Group","San Diego","USA","US/Canada",59,"https://www.meetup.com/sd-r-users/",2019-10-06,3,0,"public",2020-07-30,32.76,-117.12
"128","Twin Cities R User Group (TCRUG)","Minneapolis","USA","US/Canada",1873,"https://www.meetup.com/twincitiesrug/",2011-01-26,67,1,"public",2020-05-22,44.98,-93.27
"129","Denver R User Group","Denver","USA","US/Canada",1457,"https://www.meetup.com/DenverRUG/",2010-08-25,76,0,"public",2020-03-10,39.77,-105.01
"130","R User Group - Singapore (RUGS)","Singapore","Singapore","Asia",1999,"https://www.meetup.com/R-User-Group-SG/",2010-07-26,82,2,"public_limited",2021-06-24,1.3,103.85
"131","Saint Louis R User Group","Saint Louis","USA","US/Canada",987,"https://www.meetup.com/Saint-Louis-RUG/",2011-01-26,71,0,"public",2020-09-16,38.63,-90.19
"132","Ottawa-Gatineau R Users Group","Ottawa","Canada","US/Canada",19,"https://www.meetup.com/ottawa-gatineau-r-users-group/",2021-03-29,0,0,"public",1970-01-01,45.42,-75.7
"133","South Central PA R-Ladies","Middletown","USA","US/Canada",9,"https://www.meetup.com/South-Central-PA-R-Ladies/",2019-08-24,0,0,"public",1970-01-01,40.2,-76.73
"134","Portland R User Group","Portland","USA","US/Canada",1774,"https://www.meetup.com/portland-r-user-group/",2010-08-04,168,0,"public",2021-07-22,45.5,-122.69
"135","Wiesbaden R User Group","Wiesbaden","Germany","Europe",452,"https://www.meetup.com/Wiesbaden-R-Users-Group/",2011-01-28,102,0,"public",2021-07-14,50.08,8.23
"136","Savannah HiltonHead R Users Group","Savannah","USA","US/Canada",2,"https://www.meetup.com/savannah-hiltonhead-r-users-group/",2021-06-13,0,0,"public",1970-01-01,31.94,-81.03
"137","R Users Monterrey","Monterrey","Mexico","Latin America",50,"https://www.meetup.com/R-Users-Monterrey/",2017-08-10,2,0,"public",2020-03-11,25.67,-100.32
"138","R Users Group, Gainesville, FL","Gainesville","USA","US/Canada",545,"https://www.meetup.com/R-Users-Group-Gainesville-FL/",2013-05-22,36,0,"public",2021-06-15,29.65,-82.3
"139","Turkish Community of R","Ankara","Turkey","Europe",1328,"https://www.meetup.com/tcr-users/",2013-03-08,11,0,"public",2021-01-11,39.93,32.85
"140","Cali R Users Group (Cali)","Cali","Colombia","Latin America",608,"https://www.meetup.com/R-Users-Group-Cali/",2014-12-23,9,0,"public",2020-02-29,3.42,-76.51
"141","Vancouver R Users Group (data analysis / statistics)","Vancouver","Canada","US/Canada",1032,"https://www.meetup.com/Vancouver-R-Users-Group-data-analysis-statistics/",2011-02-09,20,0,"public",2015-08-03,49.27,-123.12
"142","SheffieldR - Sheffield R Users Group","Sheffield","United Kingdom","Europe",467,"https://www.meetup.com/SheffieldR-Sheffield-R-Users-Group/",2013-03-28,56,0,"public",2020-03-03,53.38,-1.48
"143","Kyiv useR! Group","Kyiv","Ukraine","Europe",571,"https://www.meetup.com/Kyiv-useR-Group/",2015-04-21,7,0,"public",2018-08-15,50.44,30.52
"144","Auckland R Users Group (AKLRUG)","Auckland","New Zealand","Australia",1364,"https://www.meetup.com/Auckland-R-Users-Group-AKLRUG/",2013-01-08,23,0,"public",2021-05-12,-36.85,174.76
"145","mumbai-r-user-group","Mumbai","India","Asia",574,"https://www.meetup.com/mumbai-r-user-group/",2013-09-15,31,1,"public",2017-02-02,18.96,72.82
"146","DakaR R User Group","Dakar","Senegal","Africa",283,"https://www.meetup.com/DakaR-R-User-Group/",2013-10-23,8,0,"public",2020-10-02,14.72,-17.48
"147","Atlanta R Users Group","Atlanta","USA","US/Canada",951,"https://www.meetup.com/R-Users-Atlanta/",2012-02-14,32,0,"public",2021-06-24,33.93,-84.39
"148","Bozeman Area R useR Group","Bozeman","USA","US/Canada",165,"https://www.meetup.com/Bozeman-useR-Group-R-Programming-Language/",2013-05-30,25,0,"public",2018-03-02,45.67,-111.06
"149","Offa R Users Group","Offa","Nigeria","Africa",175,"https://www.meetup.com/FEDPOFA-R-Users-Group/",2013-09-20,40,0,"public",2021-05-31,8.14,4.72
"150","New Delhi  UseR Group (R Programming Language)","Delhi","India","Asia",1440,"https://www.meetup.com/New-Delhi-R-UseR-Group/",2012-10-21,87,0,"public_limited",2018-08-18,28.67,77.21
"151","Albany R Users Group","Albany","USA","US/Canada",298,"https://www.meetup.com/Albany-R-Users-Group/",2014-03-20,16,0,"public",2019-02-28,42.65,-73.81
"152","Leipzig R statistical computing","Leipzig","Germany","Europe",253,"https://www.meetup.com/Leipzig-R-statistical-computing/",2011-10-22,11,0,"public",2018-04-16,51.35,12.4
"153","Bay Area useR Group (R Programming Language)","San Francisco","USA","US/Canada",6558,"https://www.meetup.com/R-Users/",2008-07-17,153,0,"public",2021-04-20,37.8,-122.41
"154","Sydney Users of  R Forum (SURF)","Sydney","Australia","Australia",2818,"https://www.meetup.com/R-Users-Sydney/",2010-06-06,115,0,"public",2020-03-11,-33.87,151.21
"155","amst-R-dam","Amsterdam","Netherlands","Europe",1239,"https://www.meetup.com/amst-R-dam/",2010-09-09,33,0,"public",2019-06-20,52.37,4.89
"156","Florianópolis R-NNQ R users group","Florianópolis","Brazil","Latin America",553,"https://www.meetup.com/Florianopolis-R-NNQ-R-users-group/",2016-05-06,19,0,"public",2019-11-28,-27.6,-48.54
"157","Melbourne Users of R Network (MelbURN)","Melbourne","Australia","Australia",2982,"https://www.meetup.com/MelbURN-Melbourne-Users-of-R-Network/",2010-08-04,101,1,"public",2020-11-10,-37.81,144.96
"158","Data Science Festival - London","London","United Kingdom","Europe",11366,"https://www.meetup.com/Data-Science-Festival-London/",2016-04-25,130,1,"public",2021-07-22,51.52,-0.1
"159","Data Science Hub","Mumbai","India","Asia",909,"https://www.meetup.com/Data-Science-Hub/",2019-05-04,63,1,"public",2021-07-17,18.96,72.82
"160","ODSC Birmingham Data Science","Birmingham","United Kingdom","Europe",421,"https://www.meetup.com/data-science-ODSC-Birmingham/",2018-08-14,82,3,"public",2021-07-20,52.48,-1.91
"161","ODSC Lviv Data Science","L'viv","Ukraine","Europe",278,"https://www.meetup.com/Data-Science-ODSC-Lviv/",2018-08-13,76,2,"public",2021-07-10,49.84,24.03
"162","Python And Data Science For Freshers Training and Workshop","Bangalore","India","Asia",2298,"https://www.meetup.com/Python-And-Data-Science-For-Freshers-Training-Workshop/",2018-08-28,5,0,"public",2020-03-30,12.97,77.56
"163","Collin County Data Science Education","Plano","USA","US/Canada",471,"https://www.meetup.com/Collin-County-Data-Science-Education/",2019-02-17,14,0,"public",2020-04-23,33.06,-96.74
"164","Bay Area Data Science Enthusiasts","Palo Alto","USA","US/Canada",2283,"https://www.meetup.com/Bay-Area-Data-Science-Enthusiasts/",2019-02-11,167,9,"public",2021-07-13,37.44,-122.15
"165","SF - Bay Area Data Science Initiative","San Francisco","USA","US/Canada",815,"https://www.meetup.com/SF-Bay-Area-Data-Science-Initiative/",2020-02-10,90,9,"public",2021-07-13,37.78,-122.42
"166","Newcastle Upon Tyne Data Science Meetup","Newcastle Upon Tyne","United Kingdom","Europe",967,"https://www.meetup.com/Newcastle-Upon-Tyne-Data-Science-Meetup/",2017-05-08,19,0,"public",2021-07-19,55,-1.6
"167","ODSC Amsterdam Data Science","Amsterdam","Netherlands","Europe",875,"https://www.meetup.com/Amsterdam-Data-Science-ODSC/",2018-08-02,81,2,"public",2021-07-10,52.37,4.89
"168","ODSC Sao Paulo Data Science","São Paulo","Brazil","Latin America",2276,"https://www.meetup.com/Sao-Paulo-Data-Science-ODSC/",2018-12-14,90,3,"public",2021-07-20,-23.53,-46.63
"169","Data Science - For Beginners (Hyderabad)","Hyderabad","India","Asia",1096,"https://www.meetup.com/Data-Science-For-Beginners-Hyderabad/",2020-02-21,75,2,"public",2021-07-17,17.4,78.48
"170","ODSC Austin Data Science","Austin","USA","US/Canada",753,"https://www.meetup.com/Data-Science-ODSC-Austin/",2018-12-21,98,3,"public",2021-07-20,30.22,-97.75
"171","ODSC Los Angeles Data Science","Los Angeles","USA","US/Canada",758,"https://www.meetup.com/Data-Science-ODSC-Los-Angeles/",2018-09-06,98,3,"public",2021-07-20,33.97,-118.24
"172","ODSC Zurich Data Science","Zürich","Switzerland","Europe",1081,"https://www.meetup.com/Zurich-Data-Sciece-ODSC/",2018-08-02,97,2,"public",2021-07-10,47.38,8.54
"173","Data Science Festival - Berlin","Berlin","Germany","Europe",502,"https://www.meetup.com/meetup-group-Berlin/",2019-10-16,68,1,"public",2021-07-22,52.52,13.38
"174","ODSC Copenhagen Data Science","Copenhagen","Denmark","Europe",681,"https://www.meetup.com/Copenhagen-Data-Sciece-ODSC/",2018-08-02,74,2,"public",2021-07-10,55.68,12.57
"175","ODSC Madrid Data Science","Madrid","Spain","Europe",951,"https://www.meetup.com/Madrid-Data-Science-ODSC/",2018-08-02,83,2,"public",2021-07-10,40.42,-3.71
"176","ODSC Edinburgh Data Science","Edinburgh","United Kingdom","Europe",583,"https://www.meetup.com/Edinburgh-ODSC-Data-Science/",2018-08-10,79,3,"public",2021-07-20,55.95,-3.22
"177","ODSC Delhi Data Science","Delhi","India","Asia",3002,"https://www.meetup.com/Delhi-Data-Science-ODSC/",2019-05-23,55,2,"public",2021-07-10,28.67,77.21
"178","ODSC Chicago Data Science","Chicago","USA","US/Canada",733,"https://www.meetup.com/ODSC-Chicago-Data-Science/",2018-12-21,100,3,"public",2021-07-20,41.88,-87.62
"179","ODSC Milano Data Science","Milano","Italy","Europe",1833,"https://www.meetup.com/Milano-Data-Science-ODSC/",2018-08-03,99,2,"public",2021-07-10,45.46,9.19
"180","ODSC Berlin Data Science","Berlin","Germany","Europe",709,"https://www.meetup.com/Berlin-Data-Science-ODSC/",2018-08-02,79,2,"public",2021-07-10,52.52,13.38
"181","ODSC Singapore Data Science","Singapore","Singapore","Asia",751,"https://www.meetup.com/Singapore-Data-Science-ODSC/",2019-02-04,22,2,"public",2020-12-19,1.3,103.85
"182","ODSC Dublin Data Science","Dublin","Ireland","Europe",1482,"https://www.meetup.com/Dublin-Data-Science-ODSC/",2018-08-02,102,3,"public",2021-07-20,53.33,-6.25
"183","ODSC Stockholm Data Science","Stockholm","Sweden","Europe",737,"https://www.meetup.com/Stockholm-Data-Sciece-ODSC/",2018-08-02,72,2,"public",2021-07-10,59.33,18.07
"184","ODSC Cambridge Data Science","Cambridge","United Kingdom","Europe",430,"https://www.meetup.com/data-science-odsc-cambridge/",2018-08-14,81,3,"public",2021-07-20,52.21,0.13
"185","ODSC Kyiv Data Science","Kyiv","Ukraine","Europe",626,"https://www.meetup.com/Data-Science-Kyiv-ODSC/",2018-08-13,70,2,"public",2021-07-10,50.44,30.52
"186","ODSC Manchester Data Science","Manchester","United Kingdom","Europe",699,"https://www.meetup.com/Data-Science-ODSC-Manchester/",2018-08-16,86,3,"public",2021-07-20,53.48,-2.25
"187","Lekki Data Science Meetup","Lagos","Nigeria","Africa",2724,"https://www.meetup.com/Lekki-Data-Science-Meetup/",2017-03-06,9,0,"public",2020-06-27,6.45,3.47
"188","AfterWork Data Science Lagos","Lagos","Nigeria","Africa",521,"https://www.meetup.com/AfterWork-Data-Science-Lagos/",2020-05-27,17,0,"public",2021-06-17,6.45,3.47
"189","Data Science Nantes","Nantes","France","Europe",580,"https://www.meetup.com/Data-Science-Nantes/",2018-12-03,8,0,"public",2021-03-09,47.23,-1.57
"190","L3 Data Science: A Space to Learn and Grow","London","United Kingdom","Europe",148,"https://www.meetup.com/L3-Data-Science-A-Space-to-Learn-and-Grow/",2020-06-18,0,0,"public",1970-01-01,51.52,-0.1
"191","ODSC Glasgow Data Science","Glasgow","United Kingdom","Europe",542,"https://www.meetup.com/ODSC-Glasgow-Data-Science/",2018-08-10,83,3,"public",2021-07-20,55.87,-4.27
"192","Data Science Talks","São Paulo","Brazil","Latin America",1313,"https://www.meetup.com/Data-Science-Talks/",2019-04-19,4,0,"public",2020-05-01,-23.53,-46.63
"193","Data Science Curitiba","Curitiba","Brazil","Latin America",1485,"https://www.meetup.com/Data-Science-Curitiba/",2017-09-29,14,0,"public_limited",2020-02-11,-25.42,-49.29
"194","Data Science and Machine Learning Meet","Pune","India","Asia",1544,"https://www.meetup.com/Data-Science-and-Machine-Learning/",2017-12-06,17,0,"public",2020-06-18,18.53,73.84
"195","Practical Data Science","Bangalore","India","Asia",4690,"https://www.meetup.com/Practical-Data-Science-Workshops-Bangalore/",2016-02-05,23,0,"public",2021-03-01,12.97,77.56
"196","Practical ML, DL & Data Science Group -Webinars & discussion","Bangalore","India","Asia",270,"https://www.meetup.com/practical-data-science-group/",2021-04-06,1,0,"public",2021-05-08,12.97,77.56
"197","New Haven Data Science","New Haven","USA","US/Canada",529,"https://www.meetup.com/New-Haven-Data-Science-Meetup/",2015-03-15,12,0,"public",2018-06-04,41.31,-72.93
"198","Data Science After Dark","Springfield","USA","US/Canada",255,"https://www.meetup.com/Data-Science-After-Dark/",2019-03-22,8,0,"public",2020-06-16,37.2,-93.3
"199","Winnipeg Data Science - Projects - Machine Learning with SQL","Winnipeg","Canada","US/Canada",109,"https://www.meetup.com/Winnipeg-Data-Science-Projects/",2018-11-05,12,0,"public",2019-03-17,49.89,-97
"200","KL Data Science","Kuala Lumpur","Malaysia","Asia",150,"https://www.meetup.com/KL-Data-Science/",2019-05-31,0,0,"public",1970-01-01,3.16,101.71
"201","Fresno Data Science Meetup","Fresno","USA","US/Canada",457,"https://www.meetup.com/Fresno-Data-Science-Meetup/",2019-03-17,27,0,"public",2021-04-23,36.84,-119.8
"202","Data Science Case Studies and Interview Prep","Mountain View","USA","US/Canada",539,"https://www.meetup.com/DSCaseStudies/",2019-04-29,25,0,"public",2020-07-05,37.39,-122.07
"203","San Francisco Data Science Leadership Meetup","San Francisco","USA","US/Canada",57,"https://www.meetup.com/San-Francisco-Data-Science-Leadership-Meetup/",2020-02-12,1,0,"public",2020-02-27,37.78,-122.42
"204","Open Data Science - Christchurch","Christchurch","New Zealand","Australia",21,"https://www.meetup.com/Christchurch-Data-Science-Group/",2019-03-07,3,0,"public",2019-05-18,-43.53,172.64
"205","Data Science Study Group: South Florida","Miami","USA","US/Canada",1617,"https://www.meetup.com/Data-Science-Study-Group-South-Florida/",2017-07-06,65,1,"public",2020-10-07,25.77,-80.2
"206","Fort Collins Data Science","Fort Collins","USA","US/Canada",514,"https://www.meetup.com/Fort-Collins-Data-Science/",2015-09-02,136,2,"public",2021-07-14,40.64,-105.05
"207","Data Science Festival - Leeds","Leeds","United Kingdom","Europe",295,"https://www.meetup.com/Data-Science-Festival-Leeds/",2019-10-16,69,1,"public",2021-07-22,53.81,-1.55
"208","Data Science Festival - Lagos","Lagos","Nigeria","Africa",457,"https://www.meetup.com/Data-Science-Festival-Lagos/",2020-06-22,60,1,"public",2021-07-22,6.45,3.47
"209","ODSC Lisbon Data Science","Lisbon","Portugal","Europe",417,"https://www.meetup.com/Lisbon-Data-Science-ODSC/",2019-07-24,63,2,"public",2021-07-10,38.72,-9.14
"210","Bamako Data Science","Bamako","Mali","Africa",306,"https://www.meetup.com/Bamako-Data-Science/",2018-07-02,20,0,"public",2021-02-05,12.65,-7.99
"211","Data Science Unplugged","Lisbon","Portugal","Europe",420,"https://www.meetup.com/Data-Science-Unplugged/",2017-10-03,7,0,"public",2019-04-13,38.72,-9.14
"212","Palestine Data Science Meetup","Ramallah","Palestine","Asia",169,"https://www.meetup.com/Palestine-Data-Science-Meetup/",2017-05-21,0,0,"public",1970-01-01,31.9,35.2
"213","London Data Science Journal Club","London","United Kingdom","Europe",3421,"https://www.meetup.com/London-Data-Science-Journal-Club/",2015-06-15,55,0,"public",2021-05-25,51.52,-0.09
"214","Data Science Rotterdam","Rotterdam","Netherlands","Europe",981,"https://www.meetup.com/Data-Science-Rdm/",2015-03-07,9,0,"public",2020-09-23,51.93,4.48
"215","Berlin Real World Data Science/Machine Learning Group","Berlin","Germany","Europe",663,"https://www.meetup.com/Berlin-Real-World-Data-Science-Machine-Learning-Group/",2016-04-10,0,0,"public",1970-01-01,52.52,13.38
"216","Data Science Nairobi","Nairobi","Kenya","Africa",1830,"https://www.meetup.com/Data-Science-Nairobi/",2016-01-24,7,0,"public",2017-04-22,-1.29,36.82
"217","Charlotte Women of Data Science, Machine Learning and AI","Charlotte","USA","US/Canada",126,"https://www.meetup.com/Charlotte-Women-of-Data-Science-Deep-Learning-ML-AI/",2019-02-27,1,0,"public",2019-03-20,35.19,-80.83
"218","Applied Data Science of Atlanta","Atlanta","USA","US/Canada",1203,"https://www.meetup.com/Applied-Data-Science-of-Atlanta/",2015-04-26,25,0,"public",2019-12-03,33.86,-84.47
"219","Data Science for Non-Profits","San Diego","USA","US/Canada",509,"https://www.meetup.com/Data-Science-for-Non-Profits/",2019-06-15,23,0,"public",2021-01-13,32.72,-117.17
"220","Learn Data Science","Vancouver","Canada","US/Canada",5552,"https://www.meetup.com/LearnDataScience/",2015-04-04,361,5,"public",2021-07-15,49.29,-123.12
"221","Data Science Retreat","Berlin","Germany","Europe",2122,"https://www.meetup.com/Data-Science-Retreat/",2017-08-07,27,0,"public",2021-07-20,52.52,13.38
"222","Data Science Lab","London","United Kingdom","Europe",3085,"https://www.meetup.com/data-science-lab/",2013-01-17,50,0,"public_limited",2021-07-15,51.52,-0.13
"223","Data Science Festival - Dublin","Dublin","Ireland","Europe",2189,"https://www.meetup.com/Data-Science-Festival-Dublin/",2018-05-10,79,1,"public",2021-07-22,53.33,-6.25
"224","Data Science Dojo – Seattle","Redmond","USA","US/Canada",3464,"https://www.meetup.com/data-science-dojo/",2013-11-09,70,0,"public",2021-07-14,47.68,-122.12
"225","ODSC Data Science Bengaluru","Bangalore","India","Asia",3445,"https://www.meetup.com/ODSC-Data-Science-Bengaluru/",2017-08-25,20,2,"public",2021-07-10,12.97,77.56
"226","Open Data Science Group","London","United Kingdom","Europe",310,"https://www.meetup.com/opendatascience/",2013-12-07,1,0,"public",2017-06-05,51.52,-0.1
"227","Data Science Den Haag","Den Haag","Netherlands","Europe",137,"https://www.meetup.com/Data-Science-Den-Haag/",2017-04-07,0,0,"public",1970-01-01,52.08,4.28
"228","Practical Data Science and Machine Learning","Århus","Denmark","Europe",550,"https://www.meetup.com/datasciencedk/",2014-03-29,7,0,"public",2020-03-19,56.16,10.21
"229","Southern Data Science (BBDS)","Atlanta","USA","US/Canada",2112,"https://www.meetup.com/Southern-Data-science/",2017-03-23,45,0,"public",2020-11-29,33.79,-84.39
"230","Westlake Village Data Science Meetup","Westlake Village","USA","US/Canada",1265,"https://www.meetup.com/Westlake-Village-Data-Science-Meetup/",2013-11-14,110,0,"public",2020-03-13,34.15,-118.85
"231","Data Science Johannesburg","Johannesburg","South Africa","Africa",1907,"https://www.meetup.com/Data-Science-Johannesburg/",2012-04-26,35,0,"public",2021-07-14,-26.19,28.04
"232","Women in Data Science - ATX","Austin","USA","US/Canada",1223,"https://www.meetup.com/Women-in-Data-Science-ATX/",2015-07-16,134,1,"public",2021-05-07,30.45,-97.68
"233","Data Science Tbilisi","Tbilisi","Georgia","Asia",1525,"https://www.meetup.com/Data-Science-Tbilisi/",2016-09-05,51,0,"public",2021-07-07,41.72,44.79
"234","Big Data Science","Fremont","USA","US/Canada",5140,"https://www.meetup.com/Big-Data-Science/",2012-01-25,120,23,"public",2020-02-14,37.52,-121.93
"235","Manaus Data Science","Manaus","Brazil","Latin America",7,"https://www.meetup.com/manaus-data-science/",2021-06-12,2,0,"public",2021-07-02,-3.12,-60.02
"236","London Data Science Workshop","London","United Kingdom","Europe",5085,"https://www.meetup.com/London-Data-Science-Workshop/",2015-06-07,81,0,"public",2020-03-03,51.52,-0.1
"237","Data Science NL","Amsterdam","Netherlands","Europe",3068,"https://www.meetup.com/DataScienceNL/",2012-10-02,13,0,"public",2019-11-28,52.37,4.89
"238","ROC Data Science","Rochester","USA","US/Canada",785,"https://www.meetup.com/ROC-Data-Science/",2015-03-11,17,0,"public",2021-03-12,43.17,-77.6
"239","Charlottesville Data Science","Charlottesville","USA","US/Canada",821,"https://www.meetup.com/CharlottesvilleDataScience/",2016-05-24,19,0,"public",2020-02-27,38,-78.46
"240","Data Science KC","Kansas City","USA","US/Canada",2151,"https://www.meetup.com/Data-Science-KC/",2013-06-21,54,0,"public",2020-11-05,39.06,-94.72
"241","Nara Data Science and Engineering","Jakarta","Indonesia","Asia",63,"https://www.meetup.com/Nara-Data-Science-and-Engineering/",2018-10-01,0,0,"public",1970-01-01,-6.18,106.83
"242","Data Science & Business Intelligence Society of Atlanta","Atlanta","USA","US/Canada",5086,"https://www.meetup.com/Atlanta-Society-for-Business-Intelligence/",2010-01-02,117,1,"public",2021-07-13,33.93,-84.39
"243","Data.Science.London","London","United Kingdom","Europe",1351,"https://www.meetup.com/DSLondon/",2016-02-06,29,10,"public",2021-07-22,51.52,-0.1
"244","Data Science & Machine Learning Wroclaw","Wroclaw","Poland","Europe",1838,"https://www.meetup.com/Data-Science-Wroclaw/",2015-03-16,23,0,"public",2019-04-25,51.11,17.03
"245","Data Science Manchester","Sale","United Kingdom","Europe",361,"https://www.meetup.com/Data-Science-Manchester/",2015-11-28,0,0,"public",1970-01-01,53.41,-2.32
"246","Data Science Łódź","Łódź","Poland","Europe",715,"https://www.meetup.com/data-science-lodz/",2015-10-04,18,0,"public",2020-01-13,51.77,19.46
"247","Leeds Data Science Meetup","Leeds","United Kingdom","Europe",749,"https://www.meetup.com/Leeds-Data-Science-Meetup/",2018-04-09,14,0,"public",2020-01-28,53.8,-1.55
"248","Dubai Data Science","Dubai","U.A.E.","Asia",2399,"https://www.meetup.com/Dubai-Data-Science-Meetup/",2016-09-16,35,0,"public",2021-01-22,25.27,55.33
"249","Hyderabad BigData and Data Science Meetup","Hyderabad","India","Asia",521,"https://www.meetup.com/Hyderabad-BigData-and-Data-Science-Meetup/",2014-10-26,0,0,"public",1970-01-01,17.4,78.48
"250","Data Science Indy","Indianapolis","USA","US/Canada",1062,"https://www.meetup.com/dsindy/",2013-02-13,73,0,"public_limited",2020-02-13,39.77,-86.16
"251","San Antonio Women in Machine Learning & Data Science","San Antonio","USA","US/Canada",184,"https://www.meetup.com/San-Antonio-Women-in-Machine-Learning-and-Data-Science/",2019-03-19,9,0,"public_limited",2020-02-26,29.47,-98.53
"252","Salt Lake City Data Science","Salt Lake City","USA","US/Canada",1423,"https://www.meetup.com/Salt-Lake-City-Data-Science/",2014-02-21,32,0,"public",2020-02-19,40.79,-111.93
"253","San Diego Women in Data Science","San Diego","USA","US/Canada",380,"https://www.meetup.com/San-Diego-Women-in-Data-Science/",2016-05-12,57,0,"public_limited",2019-01-31,32.85,-117.21
"254","Silicon Valley Data Science Predictive Analytics Meetup","Santa Clara","USA","US/Canada",1315,"https://www.meetup.com/Silicon-Valley-Data-Science-Predictive-Analytics-Meetup/",2016-06-16,103,1,"public",2021-07-10,37.35,-121.96
"255","Palo Alto Data Science Association","Palo Alto","USA","US/Canada",3156,"https://www.meetup.com/Palo-Alto-Data-Science-Association/",2013-11-06,109,8,"public",2019-12-28,37.44,-122.15
"256","Data Science Breakfast Meetup","Sydney","Australia","Australia",1838,"https://www.meetup.com/The-Sydney-Data-Science-Breakfast-Meetup-Group/",2015-09-16,59,0,"public",2019-11-11,-33.87,151.21
"257","Honolulu Data Science Group","Honolulu","USA","US/Canada",144,"https://www.meetup.com/Honolulu-Data-Science-Group/",2015-01-30,39,0,"public_limited",2019-04-24,21.28,-157.82
"258","Data Science Workshop","Chicago","USA","US/Canada",800,"https://www.meetup.com/Data-Science-Workshop/",2015-09-10,5,0,"public",2016-10-29,41.94,-87.65
"259","East Bay Data Science & Engineering","Oakland","USA","US/Canada",776,"https://www.meetup.com/East-Bay-Data-Science/",2016-05-13,8,0,"public",2019-01-31,37.82,-122.24
"260","PhillyTalent Evaluation@AI - Leverage for Data Science","Philadelphia","USA","US/Canada",387,"https://www.meetup.com/PhillyTalent/",2018-09-05,36,0,"public",2020-05-12,39.96,-75.2
"261","Skillspire - Bellevue Data Analytics Meetup","Bellevue","USA","US/Canada",540,"https://www.meetup.com/meetup-group-Skillspire-Bellevue-Data-Analytics-Meetup/",2017-06-27,7,0,"public",2021-06-05,47.62,-122.21
"262","Open Data New York ODSC","New York","USA","US/Canada",2876,"https://www.meetup.com/open-data-nyc-odsc/",2008-02-06,210,3,"public",2021-07-20,40.72,-74
"263","Computational Social Science  University of Maryland (CS2UM)","Laurel","USA","US/Canada",375,"https://www.meetup.com/Computational-Social-Science-University-of-Maryland-CS2UM/",2017-01-28,7,0,"public",2019-05-15,39.1,-76.88
"264","Diversity in Data","Gaithersburg","USA","US/Canada",319,"https://www.meetup.com/Diversity-in-data/",2017-02-08,7,0,"public",2019-01-10,39.14,-77.19
"265","NOVA Data School Meetup","Fairfax","USA","US/Canada",242,"https://www.meetup.com/NOVA-Data-School-Meetup/",2019-03-25,9,0,"public",2019-10-12,38.83,-77.34
"266","Barcelona Science, Machine Learning, and AI Meetup Group","Barcelona","Spain","Europe",150,"https://www.meetup.com/barcelona-science-machine-learning-and-ai-meetup-group/",2021-01-14,2,0,"public",2021-03-12,41.4,2.17
"267","Saudi Data","Riyadh","Saudi Arabia","Asia",2484,"https://www.meetup.com/Saudi-Data-2030/",2019-01-03,23,0,"public",2020-11-23,24.65,46.77
"268","Data Science Silesia","Katowice","Poland","Europe",530,"https://www.meetup.com/Data-Science-Silesia/",2017-12-07,7,0,"public",2019-05-07,50.26,19.02
"269","Big Data NL","Amsterdam","Netherlands","Europe",138,"https://www.meetup.com/Big-Data-NL/",2020-07-21,6,0,"public",2020-09-01,52.37,4.89
"270","Data Analytics & Business Intelligence","Bangalore","India","Asia",259,"https://www.meetup.com/Data_Science_ATMinds/",2017-04-20,0,0,"public",1970-01-01,12.97,77.56
"271","Women in Data Science, Power and Engineering. Nuevo León","Monterrey","Mexico","Latin America",468,"https://www.meetup.com/Women-inData-Women-in-Data-Science-Meetup/",2018-02-14,25,0,"public",2021-03-05,25.67,-100.32
"272","Data Scientists Ireland","Dublin","Ireland","Europe",4620,"https://www.meetup.com/DataScientistsIreland/",2014-02-19,218,4,"public",2021-07-15,53.33,-6.25
"273","Totta data lab","Amsterdam","Netherlands","Europe",162,"https://www.meetup.com/Totta-data-lab/",2017-08-09,6,0,"public",2020-08-27,52.37,4.89
"274","Colorado Big Data Enthusiasts","Denver","USA","US/Canada",357,"https://www.meetup.com/Colorado-Big-Data-Enthusiasts/",2015-05-27,16,0,"public",2018-10-23,39.7,-105.08
"275","Big Data Gods","Sunnyvale","USA","US/Canada",1115,"https://www.meetup.com/Big-Data-Gods/",2013-04-08,44,1,"public",2021-07-02,37.37,-122.03
"276","Ankara Data Science and Big Data Meetup","Ankara","Turkey","Europe",2171,"https://www.meetup.com/Ankara-Data-Science-and-Big-Data-Meetup/",2015-12-16,4,0,"public",2016-05-09,39.93,32.85
"277","Bristol Data Scientists","Bristol","United Kingdom","Europe",1624,"https://www.meetup.com/Bristol-Data-Scientists/",2014-08-26,19,0,"public",2020-01-28,51.45,-2.6
"278","Data Education DC","Washington","USA","US/Canada",2817,"https://www.meetup.com/Data-Education-DC/",2014-01-16,81,0,"public",2021-01-28,38.92,-77.04
"279","Charleston Data Science","Charleston","USA","US/Canada",828,"https://www.meetup.com/Charleston-Data-Science/",2014-10-05,32,0,"public",2021-02-10,32.72,-79.95
"280","The Data Scientist-Chicago","Northbrook","USA","US/Canada",702,"https://www.meetup.com/The-Data-Scientist_Chicago/",2014-07-18,5,0,"public",2016-11-02,42.13,-87.84
"281","Seattle Data Geeks","Seattle","USA","US/Canada",2514,"https://www.meetup.com/seattle-data-geeks/",2013-06-24,44,0,"public",2021-04-02,47.61,-122.33
"282","The Perth Data Science Meetup","Perth","Australia","Australia",663,"https://www.meetup.com/Perth-Data-Science/",2012-03-28,32,0,"public",2019-05-15,-31.96,115.84
"283","Women in Data Calgary","Calgary","Canada","US/Canada",956,"https://www.meetup.com/Women-in-Data-Calgary/",2018-06-19,36,0,"public",2021-07-16,51.04,-114.06
"284","Valence Data Science for Human Good","Valence","France","Europe",161,"https://www.meetup.com/Valence-DataScience-for-Human-Good/",2017-01-27,4,0,"public",2020-01-30,44.93,4.89
"285","Moscow Data Fest","Moscow","Russia","Europe",1621,"https://www.meetup.com/Moscow-Data-Fest/",2015-08-24,5,0,"public",2018-04-28,55.75,37.62
"286","Bucks County Data Science (DataBucks)","Chalfont","USA","US/Canada",128,"https://www.meetup.com/DataBucks/",2013-10-05,3,0,"public",2014-11-06,40.28,-75.2
"287","Waterloo Data Science and Data Engineering","Waterloo","Canada","US/Canada",1862,"https://www.meetup.com/Waterloo-Data-Science-and-Data-Engineering/",2015-10-15,29,0,"public",2021-06-15,43.47,-80.51
"288","Chiang Mai Data Analytics Meetup","Chiang Mai","Thailand","Asia",57,"https://www.meetup.com/Chiang-Mai-Data-Analytics-Meetup/",2018-12-27,0,0,"public",1970-01-01,18.8,98.98
"289","Open Data Science (Hosted by ODSC)","Cambridge","USA","US/Canada",5123,"https://www.meetup.com/open-data-odsc/",2013-03-20,239,3,"public",2021-07-20,42.37,-71.09
"290","Data Science & Business Analytics","Denver","USA","US/Canada",2302,"https://www.meetup.com/Data-Science-Business-Analytics/",2012-08-08,120,0,"public",2021-03-03,39.74,-104.98
"291","Santa Barbara Data Science","Santa Barbara","USA","US/Canada",312,"https://www.meetup.com/Santa-Barbara-Data-Science/",2012-05-23,12,0,"public",2019-04-17,34.42,-119.71
"292","Data Science - Abu Dhabi","Abu Dhabi","U.A.E.","Asia",263,"https://www.meetup.com/Data-Science-Abu-Dhabi/",2016-11-24,0,0,"public",1970-01-01,24.48,54.37
"293","Portland Data Science Group","Portland","USA","US/Canada",3680,"https://www.meetup.com/Portland-Data-Science-Group/",2013-11-10,298,1,"public",2020-02-23,45.55,-122.64
"294","Eventos MBIT SCHOOL","Madrid","Spain","Europe",934,"https://www.meetup.com/mbitschool/",2018-02-02,78,0,"public",2021-04-15,40.42,-3.71
"295","PyData Skopje","Skopje","Macedonia","Europe",115,"https://www.meetup.com/PyData-Skopje/",2019-10-19,5,0,"public",2020-03-19,42,21.47
"296","Data Science Antalya","Antalya","Turkey","Europe",417,"https://www.meetup.com/Data-Science-Antalya/",2018-08-27,10,0,"public",2020-02-07,36.89,30.71
"297","Amman Data Geeks","´Amman","Jordan","Asia",97,"https://www.meetup.com/AmmanDataGeeks/",2019-07-17,0,0,"public",1970-01-01,31.95,35.93
"298","PyData Jalandhar","Jalandhar","India","Asia",499,"https://www.meetup.com/PyData-Jalandhar/",2018-10-30,4,0,"public",2019-04-27,31.33,75.57
"299","Kaggle Days Meetup DC Maryland Virginia","Washington","USA","US/Canada",598,"https://www.meetup.com/Kaggle-Days/",2019-04-11,14,0,"public",2020-08-22,38.91,-77.02
"300","Advanced Analytics and Research Lab","Toronto","Canada","US/Canada",2045,"https://www.meetup.com/Advanced-Analytics-and-Research-Lab/",2017-07-08,38,0,"public",2021-06-22,43.74,-79.36
"301","PyData Austin","Austin","USA","US/Canada",1208,"https://www.meetup.com/PyData-Austin/",2017-02-22,15,0,"public",2018-10-23,30.22,-97.75
"302","DSpark MeetUps","Sydney","Australia","Australia",151,"https://www.meetup.com/DSpark/",2018-03-28,2,0,"public",2018-08-02,-33.87,151.21
"303","Data Analytics -  Community","Las Palmas","Spain","Atlantic/Canary",234,"https://www.meetup.com/Data-Analytics-Canarias-Community/",2018-08-02,5,0,"public",2019-05-16,28.1,-15.43
"304","PyData Cairo","Cairo","Egypt","Africa",2405,"https://www.meetup.com/PyData-Cairo/",2018-02-27,5,0,"public",2019-05-02,30.06,31.25
"305","Cluj Data Scientists & Machine Learners","Cluj-Napoca","Romania","Europe",252,"https://www.meetup.com/Cluj-Data-Scientists/",2017-01-27,1,0,"public_limited",2017-08-10,46.78,23.59
"306","Kaggle Days Meetup Cologne","Köln","Germany","Europe",284,"https://www.meetup.com/Kaggle-Days-Meetup-Cologne/",2019-04-30,4,0,"public",2019-10-23,50.95,6.97
"307","DataChangers - Open Your World With Data & AI","Amsterdam","Netherlands","Europe",1078,"https://www.meetup.com/datachangers/",2017-04-20,95,0,"public",2020-10-29,52.37,4.89
"308","PyData Vilnius","Vilnius","Lithuania","Europe",129,"https://www.meetup.com/PyData-Vilnius/",2019-06-03,1,0,"public",2020-02-29,54.7,25.27
"309","PyData Brasília","Brasília","Brazil","Latin America",2655,"https://www.meetup.com/PyData-Brasilia/",2017-11-03,23,0,"public",2019-11-05,-15.78,-47.91
"310","PyData Lima","Lima","Peru","Latin America",343,"https://www.meetup.com/PyData-Lima/",2018-09-25,12,0,"public",2019-10-30,-12.07,-77.05
"311","Data Latam Meetup","San Jose","Costa Rica","Latin America",593,"https://www.meetup.com/DataLatam/",2017-09-05,8,0,"public",2021-02-05,9.93,-84.08
"312","Bozeman Data & Analytics","Bozeman","USA","US/Canada",79,"https://www.meetup.com/meetup-group-oxiATbXu/",2018-04-28,0,0,"public",1970-01-01,45.67,-111.06
"313","PyData Spokane","Spokane","USA","US/Canada",190,"https://www.meetup.com/PyData-Spokane/",2018-02-27,15,0,"public",2020-03-20,47.67,-117.43
"314","CH Kaggle Competitions","Basel","Switzerland","Europe",225,"https://www.meetup.com/CH-Kaggle-Competitions/",2018-02-22,7,0,"public",2019-04-26,47.57,7.58
"315","PyData Indy","Indianapolis","USA","US/Canada",206,"https://www.meetup.com/PyData-Indianapolis/",2016-01-25,6,0,"public",2016-11-05,39.77,-86.16
"316","#DataForGood - CorrelAid Berlin","Berlin","Germany","Europe",495,"https://www.meetup.com/CorrelAid/",2019-06-19,3,0,"public",2020-03-26,52.52,13.38
"317","Data gym","Hartford","USA","US/Canada",23,"https://www.meetup.com/data-gym/",2021-04-08,1,0,"public",2021-04-11,41.79,-72.67
"318","Lagos R User Group","Lagos","Nigeria","Africa",761,"https://www.meetup.com/LagosRUsers/",2019-03-10,10,0,"public",2020-11-28,6.45,3.47
"319","Kaggle Paris Meetup","Paris","France","Europe",1174,"https://www.meetup.com/Kaggle-Paris-Meetup/",2014-03-07,25,0,"public",2021-04-22,48.86,2.34
"320","HAN Data Driven","Nijmegen","Netherlands","Europe",3,"https://www.meetup.com/HAN-Data-Driven/",2020-05-12,1,0,"public_limited",2020-06-29,51.84,5.85
"321","DataVis LA","Santa Monica","USA","US/Canada",900,"https://www.meetup.com/Data-Visualization-Los-Angeles-Data-Science/",2013-09-28,40,0,"public",2017-11-10,34.02,-118.5
"322","PyData Chicago","Chicago","USA","US/Canada",4591,"https://www.meetup.com/PyDataChi/",2016-01-04,68,1,"public",2021-06-24,41.88,-87.62
"323","PyData Mallorca","Palma","Spain","Europe",979,"https://www.meetup.com/PyData-Mallorca/",2016-09-12,23,0,"public",2020-01-22,39.57,2.65
"324","Veri Bilimi Okulu","Istanbul","Turkey","Europe",4403,"https://www.meetup.com/veribilimiokulu/",2016-12-04,16,0,"public",2020-05-22,41.01,28.96
"325","PyData Wroclaw","Wroclaw","Poland","Europe",694,"https://www.meetup.com/PyData-Wroclaw/",2016-09-23,18,0,"public",2020-02-20,51.11,17.03
"326","PyData Bogotá","Bogotá","Colombia","Latin America",629,"https://www.meetup.com/PyData-Bogota/",2016-02-05,5,0,"public",2020-11-11,4.63,-74.09
"327","Analytics Vidhya Bangalore","Bangalore","India","Asia",6009,"https://www.meetup.com/analytics-vidhya-bangalore/",2016-11-03,54,0,"public",2021-07-20,12.97,77.56
"328","R-Ladies Bari","Bari","Italy","Europe",172,"https://www.meetup.com/rladies-bari/",2018-05-17,22,1,"public",2021-06-29,41.13,16.87
"329","Global R User Group","London","United Kingdom","Europe",78,"https://www.meetup.com/globalr/",2020-11-16,55,1,"public",2021-07-15,51.48,0
"330","LondonR","London","United Kingdom","Europe",3383,"https://www.meetup.com/LondonR/",2010-02-05,84,1,"public",2021-05-26,51.51,-0.08
"331","Data, Cloud and AI in Zagreb","Zagreb","Croatia","Europe",708,"https://www.meetup.com/Big-Data-Developers-in-Zagreb/",2014-12-11,23,0,"public",2020-07-31,45.8,15.97
"332","BelgradeR","Belgrade","Serbia","Europe",809,"https://www.meetup.com/BelgradeR/",2016-05-18,13,0,"public",2021-01-11,44.83,20.5
"333","Hacking Machine Learning","München","Germany","Europe",2239,"https://www.meetup.com/Hacking-Machine-Learning/",2017-02-23,39,0,"public",2021-05-11,48.14,11.58
"334","Data Visualization in Munich Meetup","München","Germany","Europe",2862,"https://www.meetup.com/Data-Visualization-Meetup-Munich/",2016-04-09,17,0,"public",2021-03-23,48.14,11.58
"335","Budapest Data & Pizza","Budapest","Hungary","Europe",234,"https://www.meetup.com/Budapest-Data-Pizza/",2019-09-02,3,0,"public",2020-07-29,47.51,19.08
"336","Data science & analytics Brno","Brno","Czech Republic","Europe",659,"https://www.meetup.com/dataheads/",2015-04-27,13,0,"public",2018-12-12,49.2,16.61
"337","eRka / Cracow R Users Group","Kraków","Poland","Europe",826,"https://www.meetup.com/erkakrakow/",2014-10-19,28,0,"public",2020-09-24,50.06,19.96
"338","Warwick R User Group (R Programming Language)","Coventry","United Kingdom","Europe",395,"https://www.meetup.com/Warwick-useRs/",2017-07-08,17,0,"public",2021-01-11,52.38,-1.56
"339","Data, Cloud and AI in Moscow","Moscow","Russia","Europe",2890,"https://www.meetup.com/Big-Data-Developers-in-Moscow/",2014-05-20,28,0,"public",2020-07-31,55.75,37.62
"340","Big Data Women","Boston","USA","US/Canada",618,"https://www.meetup.com/Big-Data-Women/",2014-08-27,4,0,"public",2017-05-11,42.34,-71.1
"341","The Data Scientist","Cambridge","USA","US/Canada",5243,"https://www.meetup.com/The-Data-Scientist/",2012-02-22,42,0,"public",2018-08-21,42.38,-71.13
"342","Data, Cloud and AI in Montreal","Montréal","Canada","US/Canada",3533,"https://www.meetup.com/Big-Data-Developers-in-Montreal/",2015-01-27,28,0,"public",2020-08-01,45.5,-73.57
"343","AI + Marketing","Montréal","Canada","US/Canada",820,"https://www.meetup.com/MAIC-marketing/",2016-03-01,4,5,"public",2016-10-27,45.52,-73.58
"344","Data, Cloud and AI in Ottawa","Ottawa","Canada","US/Canada",1745,"https://www.meetup.com/Big-Data-Developers-in-Ottawa/",2014-11-28,34,0,"public",2020-08-01,45.42,-75.7
"345","Upstate Data Analytics","Spartanburg","USA","US/Canada",208,"https://www.meetup.com/Upstate-Data-Analytics/",2014-10-01,8,0,"public",2018-03-20,34.93,-81.97
"346","Data+Visualization Detroit","Detroit","USA","US/Canada",822,"https://www.meetup.com/Data-Visualization-Detroit/",2013-07-28,18,0,"public",2017-01-26,42.33,-83.05
"347","Divergence Academy Meetup","Addison","USA","US/Canada",556,"https://www.meetup.com/Divergence-Academy-Meetup/",2015-01-22,80,0,"public",2019-08-15,32.96,-96.83
"348","The Data Science Interview","México City","Mexico","Latin America",96,"https://www.meetup.com/The-Data-Science-Interview/",2016-06-09,0,0,"public",1970-01-01,19.43,-99.14
"349","Data, Cloud and AI in Tucson","Tucson","USA","US/Canada",376,"https://www.meetup.com/Big-Data-Developers-in-Tucson/",2015-01-27,26,0,"public",2020-08-01,32.04,-110.74
"350","Big Data Visualization Tokyo","Tokyo","Japan","Asia",329,"https://www.meetup.com/Big-Data-Visualization-Tokyo/",2014-02-21,1,0,"public",2016-01-20,35.67,139.77
"351","Barcelona R User Group","Barcelona","Spain","Europe",1176,"https://www.meetup.com/BarcelonaR/",2013-10-01,75,1,"public",2021-07-14,41.4,2.17
"352","Barcelona Data Science and Machine Learning Meetup","Barcelona","Spain","Europe",2221,"https://www.meetup.com/barcelona-data-science-machine-learning/",2014-04-11,58,0,"public",2021-06-23,41.4,2.17
"353","The Data Scientist - San Francisco","San Francisco","USA","US/Canada",1010,"https://www.meetup.com/The-Data-Scientist_San-Francisco/",2014-07-22,7,0,"public",2021-07-07,37.79,-122.4
"354","Data, Cloud and AI in Vienna","Vienna","Austria","Europe",1673,"https://www.meetup.com/Big-Data-Developers-in-Vienna/",2014-05-16,46,0,"public",2021-03-18,48.22,16.37
"355","Data Scientist","London","United Kingdom","Europe",736,"https://www.meetup.com/Data-Scientist/",2015-07-14,3,0,"public",2016-10-08,51.52,-0.1
"356","Inteligencia Artificial Argentina","Buenos Aires","Argentina","Latin America",1570,"https://www.meetup.com/InteligenciaArtificialArgentina/",2016-02-22,38,0,"public",2019-12-12,-34.61,-58.37
"357","Data Viz Jam Sessions - MTL","Montréal","Canada","US/Canada",778,"https://www.meetup.com/Data-Viz-Jam-Sessions-MTL/",2017-08-02,32,0,"public",2020-02-29,45.65,-73.5
"358","NYC Data Wranglers","New York","USA","US/Canada",2970,"https://www.meetup.com/NYC-Data-Wranglers/",2014-01-03,49,0,"public",2017-04-18,40.73,-73.99
"359","NY Data Wizards","New York","USA","US/Canada",1784,"https://www.meetup.com/NYData/",2013-04-08,19,0,"public",2019-04-03,40.73,-73.99
"360","Mississauga Big Data Analytics Meetup","Mississauga","Canada","US/Canada",626,"https://www.meetup.com/Mississauga-Big-Data-Analytics-Meetup/",2014-02-12,31,0,"public",2019-12-13,43.59,-79.64
"361","R-Ladies Miami","Miami","USA","US/Canada",1177,"https://www.meetup.com/rladies-miami/",2017-06-03,33,0,"public",2021-05-20,25.78,-80.2
"362","Future Chief Data Scientists in Orange County, CA","Orange","USA","US/Canada",809,"https://www.meetup.com/Future-Chief-Data-Scientists-in-Orange-County-CA/",2013-02-03,32,0,"public",2018-01-21,33.79,-117.84
"363","Data, Cloud and AI in Tokyo","Tokyo","Japan","Asia",1672,"https://www.meetup.com/Big-Data-Developers-in-Tokyo/",2014-10-22,59,0,"public",2021-05-21,35.67,139.77
"364","Citizen Data Scientists - Melbourne","Melbourne","Australia","Australia",4664,"https://www.meetup.com/Citizen/",2015-08-29,30,0,"public",2020-11-26,-37.81,144.96
"365","Christchurch Big Data","Christchurch","New Zealand","Australia",376,"https://www.meetup.com/Christchurch-Big-Data-Meetup/",2016-02-28,18,0,"public",2018-02-19,-43.53,172.64
"366","Data + AI Online Meetup","San Francisco","USA","US/Canada",6647,"https://www.meetup.com/data-ai-online/",2015-06-07,82,1,"public",2021-07-20,37.79,-122.4
"367","Analytics Vidhya Delhi","Delhi","India","Asia",1923,"https://www.meetup.com/Analytics-Vidhya-Delhi/",2013-08-10,92,0,"public",2021-07-20,28.67,77.21
"368","South Florida Business Intelligence Meetup Group","Miami","USA","US/Canada",40,"https://www.meetup.com/South-Florida-Business-Intelligence-Meetup-Group/",2019-07-23,0,0,"public",1970-01-01,25.96,-80.14
"369","Cork Big Data & Analytics Group","Cork","Ireland","Europe",1158,"https://www.meetup.com/Cork-Big-Data-Analytics-Group/",2013-06-24,26,0,"public_limited",2019-02-27,51.9,-8.47
"370","DataBeers Milano","Milano","Italy","Europe",723,"https://www.meetup.com/DataBeers-Milano/",2017-12-20,5,0,"public",2019-02-21,45.46,9.19
"371","FrenchData","Paris","France","Europe",3833,"https://www.meetup.com/FrenchData/",2016-01-31,11,0,"public",2019-12-17,48.86,2.34
"372","R-Ladies Bariloche","San Carlos de Bariloche","Argentina","Latin America",297,"https://www.meetup.com/rladies-bariloche/",2018-05-10,13,1,"public",2020-10-26,-41.14,-71.32
"373","Crowd Science Seminar Zürich","Zürich","Switzerland","Europe",21,"https://www.meetup.com/crowd-science-seminar-zurich/",2021-07-15,1,1,"public",2021-07-15,47.38,8.54
"374","Life Sciences Data Scientists Meetup","Bangalore","India","Asia",187,"https://www.meetup.com/Life-Sciences-Data-Scientists-Meetup/",2014-11-15,1,0,"public",2015-02-28,12.97,77.56
"375","Crowd Science Seminars Boston","Boston","USA","US/Canada",41,"https://www.meetup.com/crowd-science-seminars-boston/",2021-06-26,2,1,"public",2021-07-15,42.36,-71.07
"376","Istanbul KNIME Users","Istanbul","Turkey","Europe",775,"https://www.meetup.com/Istanbul-KNIME-Users/",2014-03-17,38,0,"public",2021-07-07,41.01,28.96
"377","Mulhouse Machine Learning Meetup","Mulhouse","France","Europe",146,"https://www.meetup.com/Mulhouse-Machine-Learning-Meetup/",2014-07-25,4,0,"public",2017-04-26,47.76,7.34
"378","EswatiniUseR Group","Manzini","Swaziland","Africa",67,"https://www.meetup.com/EswatiniUseR/",2019-08-11,3,0,"public",2020-07-23,-26.49,31.38
"379","Berlin KNIME Users","Berlin","Germany","Europe",493,"https://www.meetup.com/Berlin-KNIME-Users/",2013-10-04,48,0,"public",2021-07-07,52.52,13.38
"380","R-Ladies Buenos Aires","Buenos Aires","Argentina","Latin America",1338,"https://www.meetup.com/rladies-buenos-aires/",2017-01-03,32,0,"public",2021-05-04,-34.61,-58.37
"381","R-Ladies Santa Fe","Santa Fe","Argentina","Latin America",214,"https://www.meetup.com/rladies-santa-fe/",2018-05-08,14,0,"public",2020-07-24,-31.6,-60.69
"382","Boston Predictive Analytics","Cambridge","USA","US/Canada",3375,"https://www.meetup.com/Boston-Predictive-Analytics/",2010-07-16,53,0,"public",2016-07-17,42.37,-71.09
"383","R-Ladies La Paz","La Paz","Bolivia","Latin America",326,"https://www.meetup.com/rladies-la-paz/",2018-10-23,32,0,"public",2021-06-19,-16.5,-68.15
"384","Barranquilla Analítica R","Barranquilla","Colombia","Latin America",404,"https://www.meetup.com/Barranquilla-Analitica-R/",2018-05-26,7,0,"public",2019-06-28,11,-74.82
"385","CalgaryR","Calgary","Canada","US/Canada",1204,"https://www.meetup.com/calgaryr/",2015-04-14,40,0,"public",2021-04-22,51.06,-114.05
"386","New York Open Statistical Programming Meetup","New York","USA","US/Canada",12456,"https://www.meetup.com/nyhackr/",2009-03-12,134,0,"public",2021-07-13,40.73,-74.01
"387","DataViz Nantes","Nantes","France","Europe",1048,"https://www.meetup.com/DataViz-Nantes/",2016-09-15,17,0,"public",2021-06-24,47.23,-1.57
"388","Birmingham R User Group (R Programming Language)","Birmingham","United Kingdom","Europe",747,"https://www.meetup.com/BirminghamR/",2011-12-05,34,0,"public",2021-07-14,52.48,-1.9
"389","Vienna<-R","Vienna","Austria","Europe",753,"https://www.meetup.com/ViennaR/",2011-10-29,86,0,"public",2021-07-15,48.22,16.37
"390","Stuttgart Predictive Analytics, Predictive Maintenance, AI","Stuttgart","Germany","Europe",364,"https://www.meetup.com/Stuttgart-Predictive-Analytics-Predictive-Maintenance-AI/",2016-01-30,2,0,"public_limited",2016-11-08,48.79,9.19
"391","Trojmiasto Spark Meetup","Gdansk","Poland","Europe",186,"https://www.meetup.com/Trojmiasto-Spark-Meetup/",2017-11-27,3,0,"public",2021-02-25,54.36,18.64
"392","United Arab Emirates (UAE) Data Scientists Meetup","Abu Dhabi","U.A.E.","Asia",909,"https://www.meetup.com/United-Arab-Emirates-UAE-Data-Scientists-Meetup/",2015-06-13,18,1,"public_limited",2020-07-14,24.48,54.37
"393","rMoscow","Moscow","Russia","Europe",611,"https://www.meetup.com/rMoscow/",2014-06-16,7,0,"public",2020-01-16,55.75,37.62
"394","R-Ladies Resistencia-Corrientes","Corrientes","Argentina","Latin America",145,"https://www.meetup.com/rladies-resistencia-corrientes/",2018-06-08,11,0,"public_limited",2020-12-07,-27.49,-58.81
"395","The Virtual Business Intelligence and Analytics User Group","Smithfield","USA","US/Canada",583,"https://www.meetup.com/The-RI-Microsoft-BIUG/",2012-05-03,151,0,"public",2021-03-24,41.86,-71.49
"396","Statistical Programming DC","Washington","USA","US/Canada",6313,"https://www.meetup.com/stats-prog-dc/",2009-08-10,81,0,"public",2021-06-19,38.91,-77.02
"397","Greater Nashville Healthcare Analytics","Nashville","USA","US/Canada",1663,"https://www.meetup.com/Greater-Nashville-Healthcare-Analytics/",2015-12-17,44,0,"public",2020-11-17,36.13,-86.8
"398","Idaho Business Analytics","Boise","USA","US/Canada",37,"https://www.meetup.com/Idaho-Business-Analytics/",2018-01-09,0,0,"public",1970-01-01,43.62,-116.32
"399","Manchester R user Group","Manchester","United Kingdom","Europe",1016,"https://www.meetup.com/Manchester-R/",2013-01-07,29,0,"public",2020-02-12,53.47,-2.24
"400","sonRaí","Galway","Ireland","Europe",136,"https://www.meetup.com/sonRai/",2018-02-16,5,0,"public",2019-11-14,53.28,-9.06
"401","Stockholm R useR group (SRUG)","Stockholm","Sweden","Europe",1189,"https://www.meetup.com/StockholmR/",2012-07-23,34,0,"public",2021-01-14,59.33,18.07
"402","R-Ladies Chicago","Chicago","USA","US/Canada",1306,"https://www.meetup.com/rladies-chicago/",2017-07-05,44,0,"public",2021-06-15,41.88,-87.62
"403","Eugene R Users","Eugene","USA","US/Canada",121,"https://www.meetup.com/meetup-group-cwPiAlnB/",2017-12-13,12,0,"public",2020-01-23,44.04,-123.05
"404","R-Ladies Adelaide","Adelaide","Australia","Australia",317,"https://www.meetup.com/rladies-adelaide/",2017-02-02,9,0,"public",2019-10-02,-34.93,138.6
"405","Campus useR Group Frankfurt","Frankfurt","Germany","Europe",233,"https://www.meetup.com/r-frankfurt/",2019-01-24,26,0,"public",2021-06-02,50.12,8.68
"406","Uppsala.R","Uppsala","Sweden","Europe",74,"https://www.meetup.com/Uppsala-R/",2020-01-11,10,0,"public",2021-04-15,59.86,17.64
"407","Stamford BIT: Business Intelligence and Technologies Meetup","Stamford","USA","US/Canada",375,"https://www.meetup.com/Stamford-BIT-Business-Intelligence-Technologies/",2019-01-03,8,0,"public",2020-09-23,41.05,-73.54
"408","Buffalo R","Buffalo","USA","US/Canada",75,"https://www.meetup.com/Buffalo-R/",2019-06-27,4,0,"public",2020-04-01,42.9,-78.88
"409","Statistical Society of Australia, Victorian Branch","Melbourne","Australia","Australia",2783,"https://www.meetup.com/Statistical-Society-of-Australia-Victorian-Branch/",2013-07-29,91,1,"public",2021-07-07,-37.81,144.96
"410","R-Ladies Vancouver","Vancouver","Canada","US/Canada",608,"https://www.meetup.com/rladies-vancouver/",2017-10-06,34,1,"public",2021-07-22,49.28,-123.04
"411","Poznański Horyzont Danych","Poznan","Poland","Europe",193,"https://www.meetup.com/Poznański-Horyzont-Danych/",2019-03-04,1,0,"public",2019-04-04,52.4,16.9
"412","Analytics Para Todos - Argentina Group","Buenos Aires","Argentina","Latin America",67,"https://www.meetup.com/analytics-para-todos-argentina-group/",2021-02-02,2,0,"public",2021-02-18,-34.61,-58.37
"413","Analytics Para Todos - Mexico Group","México City","Mexico","Latin America",118,"https://www.meetup.com/analytics-mexico-group/",2021-02-02,2,0,"public",2021-02-19,19.43,-99.14
"414","AI Guild - Delhi NCR","Delhi","India","Asia",2743,"https://www.meetup.com/ai-conclave-delhi-ncr/",2017-01-12,35,0,"public",2020-12-19,28.67,77.21
"415","PyData Guatemala","Guatemala","Guatemala","Latin America",272,"https://www.meetup.com/PyData-Guatemala/",2018-03-13,1,0,"public",2018-04-21,14.63,-90.55
"416","AI & Machine Learning","Brussels","Belgium","Europe",611,"https://www.meetup.com/AI-Machine-Learning/",2018-01-05,4,0,"public",2020-04-24,50.83,4.33
"417","R-Ladies Santiago","Santiago","Chile","Latin America",2443,"https://www.meetup.com/rladies-scl/",2017-07-18,52,0,"public",2021-07-15,-33.46,-70.64
"418","R-Ladies Montpellier","Montpellier","France","Europe",152,"https://www.meetup.com/rladies-montpellier/",2018-10-17,9,0,"public",2021-04-27,43.61,3.87
"419","R-Ladies L'viv","L'viv","Ukraine","Europe",42,"https://www.meetup.com/rladies-lviv/",2019-08-31,4,0,"public",2019-10-18,49.84,24.03
"420","UseRS","Porto Alegre","Brazil","Latin America",679,"https://www.meetup.com/UseRS_/",2015-12-22,12,0,"public",2019-11-13,-30.04,-51.22
"421","R-Ladies Xalapa","Xalapa","Mexico","Latin America",480,"https://www.meetup.com/rladies-xalapa/",2018-07-30,23,1,"public_limited",2021-05-05,19.53,-96.92
"422","Machine Learning Spain","Madrid","Spain","Europe",5076,"https://www.meetup.com/MachineLearningSpain/",2014-08-20,46,0,"public",2021-06-24,40.42,-3.71
"423","R-Ladies Brisbane","Brisbane","Australia","Australia",586,"https://www.meetup.com/rladies-brisbane/",2018-05-10,21,1,"public",2021-06-16,-27.46,153.02
"424","R-Ladies Boulder","Boulder","USA","US/Canada",194,"https://www.meetup.com/rladies-boulder/",2018-06-11,14,0,"public",2021-07-13,40.05,-105.21
"425","UMUR: Usuarios Murcia R","Murcia","Spain","Europe",21,"https://www.meetup.com/UMUR-Usuarios-Murcia-R/",2020-04-01,1,0,"public",2020-04-21,37.98,-1.13
"426","R-Ladies Novi Sad","Novi Sad","Serbia","Europe",141,"https://www.meetup.com/rladies-novi-sad/",2019-05-24,6,0,"public",2019-12-21,45.25,19.85
"427","R Addicts Paris","Paris","France","Europe",1783,"https://www.meetup.com/rparis/",2013-03-21,28,0,"public",2020-10-14,48.86,2.34
"428","Dr. Stats","Belo Horizonte","Brazil","Latin America",50,"https://www.meetup.com/Dr-Stats/",2016-10-15,1,0,"public",2016-10-27,-19.92,-43.94
"429","R-Ladies Goiânia","Goiania","Brazil","Latin America",391,"https://www.meetup.com/rladies-goiania/",2019-05-06,23,0,"public",2021-05-29,-16.72,-49.26
"430","São Paulo R Users Group","São Paulo","Brazil","Latin America",1992,"https://www.meetup.com/useR-SP/",2015-05-30,24,0,"public_limited",2016-12-23,-23.53,-46.63
"431","R-Ladies Montevideo","Montevideo","Uruguay","Latin America",459,"https://www.meetup.com/rladies-montevideo/",2017-06-02,15,0,"public",2021-05-20,-34.87,-56.17
"432","GURU::mvd","Montevideo","Uruguay","Latin America",350,"https://www.meetup.com/GURU-mvd/",2018-10-04,5,0,"public",2020-01-29,-34.87,-56.17
"433","Predictive Modellers - Workshop","Hyderabad","India","Asia",315,"https://www.meetup.com/Predictive-Modellers-Meetup/",2014-07-21,3,0,"public",2014-09-06,17.4,78.48
"434","R-Ladies Santa Rosa","Santa Rosa","Argentina","Latin America",141,"https://www.meetup.com/rladies-santa-rosa/",2017-04-06,18,0,"public",2021-04-28,-36.62,-64.3
"435","R-Ladies Cusco","Cusco","Peru","Latin America",26,"https://www.meetup.com/rladies-cusco/",2020-05-09,2,0,"public",2020-12-16,-13.52,-71.99
"436","Statistical Seminars","Washington","USA","US/Canada",1343,"https://www.meetup.com/Statistical-seminars/",2015-12-24,63,0,"public_limited",2019-02-02,38.91,-77.02
"437","R-Ladies Toronto","Toronto","Canada","US/Canada",634,"https://www.meetup.com/rladies-toronto/",2018-09-18,6,0,"public",2020-08-12,43.74,-79.36
"438","Grupo de Usuarios de R en Chile","Santiago","Chile","Latin America",1940,"https://www.meetup.com/useRchile/",2013-01-22,44,0,"public",2020-09-29,-33.46,-70.64
"439","Chiang Mai R Users Group","Chiang Mai","Thailand","Asia",81,"https://www.meetup.com/ChiangMaiR/",2015-04-14,0,0,"public",1970-01-01,18.8,98.98
"440","México City Business Analytics Users Group","México City","Mexico","Latin America",1518,"https://www.meetup.com/Mexico-City-Business-Analytics-Users/",2014-12-08,21,0,"public",2019-05-17,19.43,-99.14
"441","R-Ladies Christchurch","Christchurch","New Zealand","Australia",91,"https://www.meetup.com/rladies-christchurch/",2019-05-04,7,0,"public",2019-11-12,-43.53,172.64
"442","R-Ladies Philly","Philadelphia","USA","US/Canada",1542,"https://www.meetup.com/rladies-philly/",2017-10-11,62,3,"public",2021-07-14,40.12,-75.01
"443","R-Ladies Sydney","Sydney","Australia","Australia",863,"https://www.meetup.com/rladies-sydney/",2018-05-09,43,1,"public",2021-06-22,-33.87,151.21
"444","Machine Learning Milan","Milano","Italy","Europe",3298,"https://www.meetup.com/Machine-Learning-Milan/",2017-05-31,38,1,"public",2021-06-10,45.46,9.19
"445","R-Ladies Utrecht","Utrecht","Netherlands","Europe",208,"https://www.meetup.com/rladies-utrecht/",2019-06-10,6,1,"public",2021-03-11,52.1,5.11
"446","R-Ladies Columbus","Columbus","USA","US/Canada",928,"https://www.meetup.com/rladies-columbus/",2016-10-04,47,1,"public",2021-06-10,40.01,-83.02
"447","BaselR","Basel","Switzerland","Europe",497,"https://www.meetup.com/BaselR/",2010-04-13,25,0,"public_limited",2020-03-14,47.57,7.58
"448","R-Ladies Bucharest","Bucharest","Romania","Europe",273,"https://www.meetup.com/rladies-bucharest/",2019-05-09,20,0,"public",2021-06-15,44.44,26.1
"449","R-Ladies Budapest","Budapest","Hungary","Europe",861,"https://www.meetup.com/rladies-budapest/",2017-01-24,33,0,"public",2020-01-29,47.51,19.08
"450","R-Ladies Vienna","Vienna","Austria","Europe",282,"https://www.meetup.com/rladies-vienna/",2018-09-17,16,0,"public",2021-05-27,48.22,16.37
"451","R-Ladies Rotterdam","Rotterdam","Netherlands","Europe",508,"https://www.meetup.com/rladies-rotterdam/",2017-12-05,16,0,"public",2020-12-22,51.93,4.48
"452","R-Ladies Kyiv","Kyiv","Ukraine","Europe",303,"https://www.meetup.com/rladies-kyiv/",2019-02-15,15,0,"public",2020-02-06,50.44,30.52
"453","trigeR - Trójmiejska Grupa Entuzjastów R","Gdansk","Poland","Europe",342,"https://www.meetup.com/Trojmiejska-Grupa-Entuzjastow-R/",2016-12-14,19,0,"public",2020-09-24,54.36,18.64
"454","R-Ladies Copenhagen","Copenhagen","Denmark","Europe",461,"https://www.meetup.com/rladies-copenhagen/",2017-11-20,10,0,"public",2019-12-05,55.68,12.57
"455","R-Ladies Edinburgh","Edinburgh","United Kingdom","Europe",664,"https://www.meetup.com/rladies-edinburgh/",2018-07-27,18,0,"public",2021-05-12,55.95,-3.22
"456","R-Ladies Stockholm","Stockholm","Sweden","Europe",397,"https://www.meetup.com/rladies-stockholm/",2018-08-16,7,0,"public",2019-11-26,59.33,18.07
"457","R-Ladies Niterói","Niterói","Brazil","Latin America",755,"https://www.meetup.com/rladies-niteroi/",2018-06-04,9,0,"public",2020-10-06,-22.9,-43.13
"458","Campinas Julia Language Meetup","Campinas","Brazil","Latin America",115,"https://www.meetup.com/Campinas-Julia-Language-Meetup/",2014-11-06,0,0,"public",1970-01-01,-22.91,-47.08
"459","R-Ladies Porto Alegre","Porto Alegre","Brazil","Latin America",360,"https://www.meetup.com/rladies-porto-alegre/",2017-10-30,7,0,"public",2020-07-30,-30.04,-51.22
"460","NYC Deep Learning Research Meetup","New York","USA","US/Canada",312,"https://www.meetup.com/Deep-Learning-Research-NYC/",2018-05-08,2,0,"public",2018-05-24,40.75,-73.99
"461","NYC Stats Programming Master Classes","New York","USA","US/Canada",708,"https://www.meetup.com/datascienceclasses/",2013-01-25,5,0,"public",2014-02-24,40.74,-74
"462","NYC Julia User Group","New York","USA","US/Canada",733,"https://www.meetup.com/julia-nyc/",2013-08-08,14,0,"public",2020-04-17,40.71,-74.01
"463","R-Ladies Highland Park","Highland Park","USA","US/Canada",67,"https://www.meetup.com/rladies-highland-park/",2019-05-09,4,0,"public",2019-12-02,40.5,-74.43
"464","R-Ladies Charlottesville","Charlottesville","USA","US/Canada",420,"https://www.meetup.com/rladies-charlottesville/",2017-09-21,18,0,"public",2020-06-16,38,-78.46
"465","R-Ladies Kathmandu","Kathmandu","Nepal","Asia",80,"https://www.meetup.com/rladies-kathmandu/",2018-10-01,4,0,"public",2020-03-28,27.71,85.31
"466","R-Ladies Iowa City","Iowa City","USA","US/Canada",111,"https://www.meetup.com/rladies-iowa-city/",2018-09-18,5,0,"public",2019-10-17,41.66,-91.53
"467","R-Ladies Twin Cities","Minneapolis","USA","US/Canada",422,"https://www.meetup.com/rladies-tc/",2015-04-01,46,0,"public",2021-04-14,44.94,-93.22
"468","R-Ladies Des Moines","Des Moines","USA","US/Canada",29,"https://www.meetup.com/rladies-des-moines/",2018-09-23,4,0,"public",2019-05-20,41.6,-93.63
"469","R-Ladies Houston","Houston","USA","US/Canada",99,"https://www.meetup.com/rladies-houston/",2018-12-07,0,0,"public",1970-01-01,29.72,-95.22
"470","Querétaro Business Analytics Users Group","Querétaro","Mexico","Latin America",405,"https://www.meetup.com/Queretaro-Business-Analytics-Users-Group/",2015-11-10,5,0,"public",2018-02-02,20.59,-100.4
"471","R-Ladies Tucson AZ","Tucson","USA","US/Canada",371,"https://www.meetup.com/rladies-tucson-az/",2017-11-14,62,0,"public",2021-06-09,32.22,-110.97
"472","R-Ladies Riverside","Riverside","USA","US/Canada",378,"https://www.meetup.com/rladies-riverside/",2019-08-02,9,0,"public",2021-04-13,33.99,-117.37
"473","R-Ladies Perth","Perth","Australia","Australia",259,"https://www.meetup.com/rladies-perth/",2018-10-23,10,0,"public",2019-12-17,-31.96,115.84
"474","R-Ladies San Francisco","San Francisco","USA","US/Canada",1677,"https://www.meetup.com/rladies-san-francisco/",2012-10-01,61,0,"public",2021-05-01,37.79,-122.4
"475","R, ML and AI in Sydney","Sydney","Australia","Australia",197,"https://www.meetup.com/R-ML-and-AI-in-Sydney/",2019-01-12,0,0,"public",1970-01-01,-33.87,151.21
"476","R-Ladies Auckland","Auckland","New Zealand","Australia",760,"https://www.meetup.com/rladies-auckland/",2017-11-20,28,0,"public",2021-04-08,-36.85,174.76
"477","R-Ladies Freiburg","Freiburg","Germany","Europe",603,"https://www.meetup.com/rladies-freiburg/",2019-01-23,44,2,"public",2021-07-20,47.99,7.85
"478","R-Ladies Melbourne","Melbourne","Australia","Australia",1829,"https://www.meetup.com/rladies-melbourne/",2016-09-02,65,0,"public",2021-05-19,-37.81,144.96
"479","R-Ladies Irvine","Irvine","USA","US/Canada",481,"https://www.meetup.com/rladies-irvine/",2018-03-13,22,1,"public",2021-05-26,33.65,-117.84
"480","AthensR","Athens","Greece","Europe",230,"https://www.meetup.com/AthensR/",2015-04-16,23,0,"public",2021-07-14,37.98,23.73
"481","R@Minho","Braga","Portugal","Europe",46,"https://www.meetup.com/R-Minho/",2015-10-06,0,0,"public",1970-01-01,41.55,-8.43
"482","R-Ladies Lyon","Lyon","France","Europe",80,"https://www.meetup.com/rladies-lyon/",2018-10-29,4,0,"public",2019-11-04,45.76,4.83
"483","R-Ladies Belgrade","Belgrade","Serbia","Europe",463,"https://www.meetup.com/rladies-belgrade/",2017-09-15,25,0,"public",2021-05-26,44.83,20.5
"484","R Lille","Lille","France","Europe",325,"https://www.meetup.com/R-Lille/",2020-02-05,16,1,"public",2021-06-17,50.64,3.07
"485","R-Ladies Brussels","Brussels","Belgium","Europe",233,"https://www.meetup.com/rladies-brussels/",2017-08-15,10,0,"public",2019-03-30,50.83,4.33
"486","R-Ladies London","London","United Kingdom","Europe",1533,"https://www.meetup.com/rladies-london/",2016-01-31,55,0,"public",2020-06-25,51.52,-0.1
"487","R-Ladies Nijmegen","Nijmegen","Netherlands","Europe",347,"https://www.meetup.com/rladies-nijmegen/",2018-05-05,12,0,"public",2020-08-18,51.84,5.85
"488","R-Ladies Cambridge","Cambridge","United Kingdom","Europe",291,"https://www.meetup.com/rladies-cambridge/",2017-11-10,2,0,"public",2020-08-04,52.2,0.11
"489","R Glasgow","Glasgow","United Kingdom","Europe",264,"https://www.meetup.com/RGlasgow/",2019-04-24,6,0,"public",2021-01-11,55.87,-4.27
"490","R-Ladies Pune","Pune","India","Asia",165,"https://www.meetup.com/rladies-pune/",2019-09-29,8,0,"public",2021-05-09,18.53,73.84
"491","R-Ladies Chennai","Chennai","India","Asia",379,"https://www.meetup.com/rladies-chennai/",2017-10-15,7,0,"public",2021-05-01,13.09,80.27
"492","R-Ladies Ottawa","Ottawa","Canada","US/Canada",224,"https://www.meetup.com/rladies-ottawa/",2018-12-05,6,0,"public",2020-10-27,45.45,-75.69
"493","Manassas Machine Learning 101 and Beyond","Manassas","USA","US/Canada",81,"https://www.meetup.com/Manassas-Machine-Learning-101-and-Beyond-Meetup-Group/",2019-08-03,1,0,"public",2019-10-05,38.75,-77.48
"494","R-Ladies Orlando","Orlando","USA","US/Canada",323,"https://www.meetup.com/rladies-orlando/",2017-06-05,17,0,"public",2019-05-29,28.54,-81.37
"495","R-Ladies Kansas City","Kansas City","USA","US/Canada",66,"https://www.meetup.com/rladies-kansas-city/",2019-07-19,4,0,"public",2020-02-14,39.1,-94.6
"496","R-Ladies Remote","San Francisco","USA","US/Canada",356,"https://www.meetup.com/rladies-remote/",2018-06-19,9,0,"public",2019-12-17,37.78,-122.42
"497","R-Ladies Valparaíso","Valparaíso","Chile","Latin America",411,"https://www.meetup.com/rladies-valparaiso/",2018-05-18,30,0,"public",2021-07-15,-33.04,-71.64
"498","Spain Quantum Computing","Madrid","Spain","Europe",226,"https://www.meetup.com/Madrid-Quantum-Computing-Meetup/",2017-08-29,2,0,"public",2017-12-19,40.42,-3.71
"499","R-Ladies Oslo","Oslo","Norway","Europe",547,"https://www.meetup.com/rladies-oslo/",2018-02-26,12,0,"public",2020-09-24,59.91,10.75
"500","Bots,AR,PWeb-Mobile,ServerlessCC & BChain  Codeseeker's","Bangalore","India","Asia",795,"https://www.meetup.com/Bots-AR-PWeb-Mobile-ServerlessCC-BChain-Codeseekers/",2016-12-15,35,0,"public",2021-01-02,12.97,77.56
"501","R-Ladies Montreal","Montréal","Canada","US/Canada",538,"https://www.meetup.com/rladies-montreal/",2017-09-14,38,0,"public",2021-07-15,45.53,-73.6
"502","American Statistical Association - Philadelphia (ASA-P)","Philadelphia","USA","US/Canada",85,"https://www.meetup.com/amstatphilly/",2018-08-11,1,0,"public",2019-12-05,39.97,-75.17
"503","Bay Area entrepreneurs in statistics","Oakland","USA","US/Canada",1274,"https://www.meetup.com/Bay-Area-entrepreneur-in-statistics/",2014-07-21,27,0,"public",2020-04-04,37.84,-122.22
"504","MLGeek Brussels","Brussels","Belgium","Europe",698,"https://www.meetup.com/MLGeek-Brussels/",2013-03-14,24,0,"public",2017-05-09,50.83,4.33
"505","Chicago Chapter American Statistical Association","Chicago","USA","US/Canada",573,"https://www.meetup.com/Chicago-Chapter-American-Statistical-Association/",2012-09-17,47,0,"public",2020-11-20,41.88,-87.64
"506","NYC Data Science, ML, AI Platform","New York","USA","US/Canada",735,"https://www.meetup.com/NYC-Data-Science-ML-AI-Platform/",2020-03-22,88,9,"public",2021-07-13,40.75,-73.99
"507","Chicago Data Science, ML, AI Platform","Chicago","USA","US/Canada",495,"https://www.meetup.com/Chicago-Data-Science-ML-AI-Platform/",2020-03-22,88,9,"public",2021-07-13,41.88,-87.62
"508","Data Science Alliance","Melbourne","Australia","Australia",220,"https://www.meetup.com/data-science-alliance/",2020-12-16,4,0,"public",2021-05-04,-37.81,144.96
"509","Ouagadougou Data Science Meetup Group","Ouagadougou","Burkina Faso","Africa",115,"https://www.meetup.com/ouagadougou-data-science/",2021-02-06,6,0,"public",2021-07-13,12.37,-1.53
"510","Los Angeles Data Science,Machine Learning, AI","Los Angeles","USA","US/Canada",357,"https://www.meetup.com/Los-Angeles-Data-Science-Machine-Learning-AI/",2020-04-20,70,9,"public",2021-07-13,33.97,-118.24
"511","ODSC Hyderabad Data Science","Hyderabad","India","Asia",1258,"https://www.meetup.com/ODSC-Hyderabad-Data-Science/",2019-08-19,43,2,"public",2021-07-10,17.4,78.48
"512","Data Science Raleigh","Raleigh","USA","US/Canada",628,"https://www.meetup.com/Data-Science-NC/",2019-07-01,11,2,"public",2021-06-17,35.77,-78.64
"513","ODSC Dallas Data Science","Dallas","USA","US/Canada",384,"https://www.meetup.com/ODSC-Dallas-Data-Science/",2019-11-22,66,3,"public",2021-07-20,32.79,-96.8
"514","ODSC Hong Kong Data Science","Hong Kong","Hong Kong","Asia",205,"https://www.meetup.com/ODSC-Hong-Kong-Data-Science/",2019-08-19,14,2,"public",2020-12-19,22.27,114.14
"515","Copenhagen Women in Machine Learning & Data Science","Copenhagen","Denmark","Europe",175,"https://www.meetup.com/Copenhagen-Women-in-Machine-Learning-and-Data-Science/",2019-06-26,1,0,"public",2019-12-16,55.68,12.57
"516","Data Science Philippines - Cebu Chapter","Cebu","Philippines","Asia",182,"https://www.meetup.com/Data-Science-Philippines-Cebu-Chapter/",2018-02-03,0,0,"public",1970-01-01,10.32,123.9
"517","Data Science Festival - Melbourne","Melbourne","Australia","Australia",390,"https://www.meetup.com/Data-Science-Festival-Melbourne/",2020-06-22,37,0,"public",2020-12-18,-37.81,144.96
"518","WiDS TLV - Women in Data Science","Tel Aviv-Yafo","Israel","Asia",168,"https://www.meetup.com/WIDSxTLV/",2021-05-23,1,0,"public",2021-06-29,32.07,34.77
"519","ODSC Kolkata Data Science","Kolkata","India","Asia",1303,"https://www.meetup.com/ODSC-Kolkata-Data-Science/",2019-08-19,45,2,"public",2021-07-10,22.57,88.36
"520","Orlando Machine Learning and Data Science","Orlando","USA","US/Canada",1521,"https://www.meetup.com/Orlando-MLDS/",2016-11-09,46,1,"public",2021-06-30,28.54,-81.37
"521","ODSC Pune Data Science","Pune","India","Asia",516,"https://www.meetup.com/ODSC-Pune-Data-Science/",2020-02-14,37,2,"public",2021-07-10,18.53,73.84
"522","ODSC Tel Aviv Data Science","Tel Aviv-Yafo","Israel","Asia",622,"https://www.meetup.com/Tel-Aviv-Data-Science-ODSC/",2019-08-02,51,2,"public",2021-07-10,32.07,34.77
"523","Aachen Data Science Meetup (OSTHUS)","Aachen","Germany","Europe",115,"https://www.meetup.com/Osthus-Data-Science-Meetup-Group/",2020-05-19,3,0,"public",2021-06-30,50.77,6.09
"524","ODSC Lagos Data Science","Lagos","Nigeria","Africa",1288,"https://www.meetup.com/ODSC-Data-Science-Lagos/",2019-09-20,58,2,"public",2021-07-10,6.45,3.47
"525","The Assembly: Data Science","Dubai","U.A.E.","Asia",620,"https://www.meetup.com/The-Assembly-Data-Science/",2019-11-10,23,2,"public",2021-07-19,25.27,55.33
"526","ODSC Toronto Data Science","Toronto","Canada","US/Canada",655,"https://www.meetup.com/ODSC-Toronto-Data-Science/",2019-11-22,69,3,"public",2021-07-20,43.74,-79.36
"527","ODSC Houston Data Science","Houston","USA","US/Canada",265,"https://www.meetup.com/ODSC-Houston-Data-Science/",2019-11-28,69,3,"public",2021-07-20,29.72,-95.22
"528","ODSC Montréal Data Science","Montréal","Canada","US/Canada",324,"https://www.meetup.com/ODSC-Montreal-Data-Science/",2019-11-28,66,3,"public",2021-07-20,45.65,-73.5
"529","Data Science MIA","Miami","USA","US/Canada",237,"https://www.meetup.com/Miami-Artificial-Intelligence-Meetup-Group/",2019-10-13,10,2,"public",2021-06-17,25.78,-80.2
"530","Heilbronn Data Science Gruppe","Heilbronn","Germany","Europe",20,"https://www.meetup.com/Heilbronn-Data-Science-Gruppe/",2019-09-19,0,0,"public",1970-01-01,49.14,9.22
"531","Psychology in Data Science","London","United Kingdom","Europe",111,"https://www.meetup.com/Psychology-in-Data-Science/",2020-03-07,0,0,"public",1970-01-01,51.51,-0.02
"532","Norrköping Data Science Community","Norrköping","Sweden","Europe",164,"https://www.meetup.com/Norrkoping-Data-Science-Community/",2019-05-03,6,0,"public",2020-11-03,58.6,16.17
"533","BCG GAMMA Data Science Group","São Paulo","Brazil","Latin America",1026,"https://www.meetup.com/BCG-GAMMA-Data-Science-Group/",2020-05-13,4,0,"public",2021-06-10,-23.53,-46.63
"534","Learnbay : Data Science Meetup Bangalore","Bangalore","India","Asia",5465,"https://www.meetup.com/Bangalore-Data-Science-Meetup-Learnbay/",2017-06-19,41,0,"public",2021-05-17,12.97,77.56
"535","Women in Data Science (WiDS) Cambridge","Cambridge","USA","US/Canada",112,"https://www.meetup.com/Women-in-Data-Science-WiDS-Cambridge/",2020-03-12,0,0,"public",1970-01-01,42.38,-71.13
"536","Bronx Data Science Meetup","Bronx","USA","US/Canada",130,"https://www.meetup.com/Bronx-Big-Data-Meetup/",2017-11-07,1,0,"public",2018-03-05,40.82,-73.92
"537","Spatial Data Science NYC","New York","USA","US/Canada",99,"https://www.meetup.com/Spatial-Data-Science-NYC/",2020-01-24,2,2,"public",2021-03-24,40.75,-73.99
"538","Seattle Data Science in Action","Seattle","USA","US/Canada",1428,"https://www.meetup.com/meetup-datascience/",2017-10-12,14,0,"public",2019-08-21,47.61,-122.33
"539","Data Science and Analytics - Southern Oregon","Medford","USA","US/Canada",23,"https://www.meetup.com/meetup-group-dpxhbtmz/",2020-11-26,1,0,"public",2021-01-05,42.31,-122.88
"540","European Data Science Community","Paris","France","Europe",1097,"https://www.meetup.com/European-data-science-community/",2019-07-07,560,18,"public",2021-07-21,48.86,2.34
"541","London Data Science, ML, AI Platform","London","United Kingdom","Europe",893,"https://www.meetup.com/London-Data-Science-ML-AI-Platform/",2020-09-14,46,9,"public",2021-07-13,51.52,-0.1
"542","CREWES - Seismic, Machine Learning and Data Science Research","Calgary","Canada","US/Canada",62,"https://www.meetup.com/crewes/",2021-05-06,5,0,"public",2021-07-08,51.05,-114.08
"543","Data Science Strasbourg","Strasbourg","France","Europe",831,"https://www.meetup.com/data-science-strasbourg/",2014-07-03,27,0,"public",2020-11-04,48.58,7.75
"544","Romania Data Science 360 Think Tank Meetup Group","Bucharest","Romania","Europe",16,"https://www.meetup.com/bucharest-data-science-360-think-tank-meetup-group/",2021-05-05,1,0,"public",2021-05-22,44.44,26.1
"545","Nürnberg Data Science","Nürnberg","Germany","Europe",105,"https://www.meetup.com/Nuernberg-Data-Science/",2020-02-05,1,0,"public",2020-03-06,49.45,11.05
"546","PR Data Science Community","San Juan","Puerto Rico","Latin America",352,"https://www.meetup.com/prdatascience/",2017-04-08,3,0,"public",2017-08-24,18.46,-66.11
"547","Data Science Exeter","Exeter","United Kingdom","Europe",448,"https://www.meetup.com/Data-Science-Exeter/",2016-03-02,14,0,"public",2018-03-14,50.73,-3.52
"548","Southern California Data Science and Datapreneurship","Rancho Cucamonga","USA","US/Canada",203,"https://www.meetup.com/Southern-California-Data-Science-and-Datapreneurship/",2019-03-09,26,0,"public",2021-03-21,34.16,-117.59
"549","Istanbul - Quematics Data Science & Machine Learning","Istanbul","Turkey","Europe",387,"https://www.meetup.com/Istanbul-Quematics-Data-Science-Machine-Learning/",2020-03-04,6,0,"public",2020-12-07,41.01,28.96
"550","Data Science with R Meetup Group Bucharest","Bucharest","Romania","Europe",79,"https://www.meetup.com/meetup-group-vtQvWral/",2019-08-02,1,0,"public",2019-11-05,44.44,26.1
"551","Data Science Minneapolis","Minneapolis","USA","US/Canada",1727,"https://www.meetup.com/Data-Science-Minneapolis/",2019-02-05,18,0,"public",2021-04-06,44.98,-93.27
"552","Data Science Malmö","Malmö","Sweden","Europe",333,"https://www.meetup.com/Data-Science-Malmo/",2018-05-21,13,0,"public",2019-09-10,55.61,13.02
"553","Data Science Mumbai","Mumbai","India","Asia",1203,"https://www.meetup.com/ik2analytics/",2018-10-23,47,1,"public",2021-07-18,18.96,72.82
"554","Data Council London Data Engineering & Science","London","United Kingdom","Europe",683,"https://www.meetup.com/DataCouncil-AI-London-Data-Engineering-and-Science/",2018-11-15,10,0,"public",2020-12-15,51.52,-0.1
"555","Los Angeles Data Career Coaching","Los Angeles","USA","US/Canada",188,"https://www.meetup.com/meetup-group-fmWRlnaK/",2018-09-29,4,0,"public",2018-11-21,33.97,-118.24
"556","Eblocks Data Analytics Group (E-DAG)","Johannesburg","South Africa","Africa",69,"https://www.meetup.com/eblocks-data-science-group-e-dag/",2020-02-12,0,0,"public",1970-01-01,-26.19,28.04
"557","Talk Data to MX","México City","Mexico","Latin America",209,"https://www.meetup.com/Learn-Data-Science-Analyitics-ML-AI-and-talk-data-to-me/",2018-11-06,2,0,"public",2018-11-30,19.43,-99.14
"558","Decision Science","London","United Kingdom","Europe",104,"https://www.meetup.com/DecisionIntelligence/",2020-03-02,0,0,"public",1970-01-01,51.51,-0.02
"559","Early Career & Graduate Data Scientists","London","United Kingdom","Europe",59,"https://www.meetup.com/early-career-graduate-data-scientists/",2021-03-19,1,0,"public",2021-03-23,51.51,-0.08
"560","DFW Full Stack Data Science","Plano","USA","US/Canada",110,"https://www.meetup.com/DFW-Full-Stack-Data-Science/",2019-06-28,0,0,"public",1970-01-01,33.06,-96.74
"561","SF Data Meetup","San Francisco","USA","US/Canada",569,"https://www.meetup.com/SF-Data-Meetup/",2018-05-26,1,0,"public",2018-08-29,37.78,-122.42
"562","Data Umbrella India","Bangalore","India","Asia",33,"https://www.meetup.com/data-umbrella-india/",2020-12-01,0,0,"public",1970-01-01,12.97,77.56
"563","PGH Data Science","Pittsburgh","USA","US/Canada",1914,"https://www.meetup.com/PGH-Data-Science/",2017-02-02,25,0,"public",2020-11-16,40.47,-79.95
"564","Boston Area Pharmaceutical Statistics and Data Science Group","Boston","USA","US/Canada",645,"https://www.meetup.com/Boston-Area-Pharmaceutical-Statistics-and-Data-Science-Group/",2019-05-09,4,0,"public",2020-02-25,42.36,-71.07
"565","Silicon Valley Data Visualization Meetup","Palo Alto","USA","US/Canada",700,"https://www.meetup.com/SVDataVizMeetup/",2017-11-26,24,0,"public",2020-02-29,37.41,-122.16
"566","NJ Data Science - Spark, TensorFlow","Princeton","USA","US/Canada",856,"https://www.meetup.com/nj-datascience/",2014-04-12,25,1,"public",2019-05-14,40.37,-74.67
"567","Moffitt Cancer Center Bio-Data Club","Tampa","USA","US/Canada",68,"https://www.meetup.com/biodataclub/",2019-05-30,9,0,"public",2021-06-18,28.06,-82.45
"568","DataSciMT","Cuiabá","Brazil","Latin America",333,"https://www.meetup.com/DataSciMT/",2019-09-30,7,0,"public",2020-08-20,-15.61,-56.09
"569","DataCan Meetup Group","Vancouver","Canada","US/Canada",147,"https://www.meetup.com/datacan-meetup-group/",2021-05-07,0,1,"public",1970-01-01,49.28,-123.04
"570","BigNumber Copenhagen","Copenhagen","Denmark","Europe",146,"https://www.meetup.com/bignumber-copenhagen/",2020-08-14,11,1,"public",2021-03-05,55.68,12.57
"571","PyData Kaduna","Kaduna","Nigeria","Africa",242,"https://www.meetup.com/PyData-Kaduna/",2019-03-01,2,0,"public",2019-12-22,10.52,7.44
"572","PyData Bulawayo","Bulawayo","Zimbabwe","Africa",23,"https://www.meetup.com/PyData-Bulawayo/",2019-03-07,0,0,"public",1970-01-01,-20.17,28.58
"573","Workshop in Data Science","Milano","Italy","Europe",130,"https://www.meetup.com/Workshop-in-Data-Science/",2019-05-31,1,0,"public",2019-07-08,45.46,9.19
"574","Datascrum","London","United Kingdom","Europe",675,"https://www.meetup.com/Datascrum/",2019-05-02,9,0,"public",2020-11-23,51.52,-0.1
"575","PyData Mysore","Mysore","India","Asia",450,"https://www.meetup.com/PyData-Mysore/",2018-11-12,2,0,"public",2019-08-13,12.3,76.64
"576","NeuralMinds Delhi Chapter","Delhi","India","Asia",1765,"https://www.meetup.com/neuralminds-delhi/",2017-03-17,3,0,"public",2018-11-27,28.67,77.21
"577","Long Island Data Analytics Meetups","Old Westbury","USA","US/Canada",342,"https://www.meetup.com/Long-Island-Data-Analytics-Meetup-Group/",2019-06-20,11,0,"public",2021-05-05,40.78,-73.59
"578","Aspiring Data Scientist Community","Austin","USA","US/Canada",1239,"https://www.meetup.com/Aspiring-Data-Scientist-Community/",2017-06-30,26,0,"public",2020-03-10,30.27,-97.71
"579","QuantUniversity Meetup Group - London","London","United Kingdom","Europe",106,"https://www.meetup.com/QuantUniversity-Meetup-Group/",2020-07-21,45,0,"public",2021-07-08,51.52,-0.1
"580","Kaggle Days Meetup Sevilla","Sevilla","Spain","Europe",164,"https://www.meetup.com/Kaggle-Days-Meetup-Sevilla/",2019-09-20,1,0,"public",2019-11-23,37.4,-5.98
"581","Ribeirão Preto Artificial Intelligence & Machine Learning","Ribeirão Preto","Brazil","Latin America",357,"https://www.meetup.com/Ribeirao-Preto-Artificial-Intelligence-Machine-Learning/",2018-08-25,10,0,"public",2019-07-03,-21.17,-47.8
"582","Cheminformatics and Computational biology","Rockville","USA","US/Canada",28,"https://www.meetup.com/meetup-group-jebqvilo/",2021-06-11,0,0,"public",1970-01-01,39.08,-77.15
"583","Port City Analytics","Wilmington","USA","US/Canada",116,"https://www.meetup.com/PortCityAnalytics/",2018-02-07,6,0,"public",2019-12-12,34.23,-77.94
"584","Artificial Intelligence Meetup (AIM) of Bloomington-Normal","Bloomington","USA","US/Canada",158,"https://www.meetup.com/AIM-of-Bloomington-Normal/",2019-05-06,6,0,"public",2020-10-06,40.48,-88.95
"585","BigNumber Berlin","Berlin","Germany","Europe",194,"https://www.meetup.com/bignumber-berlin/",2020-08-11,11,1,"public",2021-03-05,52.52,13.38
"586","BigNumber Stockholm","Stockholm","Sweden","Europe",193,"https://www.meetup.com/bignumber-stockholm/",2020-08-14,11,1,"public",2021-03-05,59.33,18.07
"587","Datapanthy@DeveLearn","Mumbai","India","Asia",37,"https://www.meetup.com/Mumbai-Data-Science-Meetup-Group-Datapanthy-DeveLearn/",2020-01-30,0,0,"public",1970-01-01,18.96,72.82
"588","R-Ladies Abuja","Abuja","Nigeria","Africa",340,"https://www.meetup.com/rladies-abuja/",2020-02-04,6,0,"public",2021-06-26,9.18,7.17
"589","Kaggle Days Meetup Madrid","Madrid","Spain","Europe",905,"https://www.meetup.com/kaggle-days-meetup-madrid/",2018-10-13,5,0,"public",2021-03-04,40.42,-3.71
"590","Accenture Data Meetup","Warsaw","Poland","Europe",187,"https://www.meetup.com/meetup-group-GJrQIpUu/",2018-02-10,1,0,"public",2018-02-15,52.26,21.02
"591","PyData Atlanta","Atlanta","USA","US/Canada",3517,"https://www.meetup.com/PyData-Atlanta/",2016-01-04,65,0,"public",2020-11-11,33.86,-84.4
"592","Data Visualization RTP","Raleigh","USA","US/Canada",338,"https://www.meetup.com/Data-Visualization-RTP/",2019-08-04,11,2,"public",2021-06-17,35.77,-78.64
"593","GigBuzz Zürich","Zürich","Switzerland","Europe",456,"https://www.meetup.com/GigBuzz-Zurich/",2018-04-23,15,0,"public",2020-05-27,47.38,8.54
"594","GothenburgR – R User Group","Göteborg","Sweden","Europe",13,"https://www.meetup.com/gothenburgr/",2021-05-22,0,0,"public",1970-01-01,57.72,12.01
"595","DataMeet Pune","Pune","India","Asia",860,"https://www.meetup.com/DataMeet-Pune/",2015-07-14,31,0,"public",2019-04-13,18.53,73.84
"596","Hyderabad Machine Learning Foundation Meetup","Hyderabad","India","Asia",1197,"https://www.meetup.com/Hyderabad-Machine-Learning-Foundation-Meetup/",2018-10-02,27,0,"public",2021-06-07,17.4,78.48
"597","Boston Dataquest Group","Boston","USA","US/Canada",839,"https://www.meetup.com/Boston-Dataquest-Group/",2016-10-27,39,0,"public",2021-02-03,42.36,-71.07
"598","PyData Boston - Cambridge","Boston","USA","US/Canada",2202,"https://www.meetup.com/PyData-Boston-Cambridge/",2014-10-20,29,0,"public",2021-05-27,42.34,-71.09
"599","Arlington Statistical Computing Meetup","Arlington","USA","US/Canada",239,"https://www.meetup.com/Arlington-Statistical-Computing-Meetup/",2017-02-26,3,0,"public",2017-07-05,38.89,-77.1
"600","R-Ladies East Lansing","East Lansing","USA","US/Canada",594,"https://www.meetup.com/rladies-east-lansing/",2017-12-09,31,0,"public",2021-06-15,42.65,-84.49
"601","Data Viz Jam Sessions","Seattle","USA","US/Canada",1413,"https://www.meetup.com/Data-Viz-Jam-Sessions/",2016-06-25,64,0,"public",2020-02-22,47.61,-122.33
"602","R-Ladies PDX","Portland","USA","US/Canada",251,"https://www.meetup.com/rladies-pdx/",2017-07-20,14,0,"public",2019-08-06,45.5,-122.69
"603","IndyML","Carmel","USA","US/Canada",301,"https://www.meetup.com/IndyML/",2015-07-30,19,0,"public",2020-05-12,39.97,-86.16
"604","Mu Sigma","Berlin","Germany","Europe",76,"https://www.meetup.com/Mu-Sigma/",2020-01-31,1,0,"public",2020-10-21,52.52,13.38
"605","Matrixian Group","Amsterdam","Netherlands","Europe",25,"https://www.meetup.com/Matrixian-Group/",2018-10-15,1,0,"public",2018-10-20,52.37,4.89
"606","Artificial Intelligence for Medical Technology","Amsterdam","Netherlands","Europe",1131,"https://www.meetup.com/Artificial-Intelligence-for-Medical-Technology/",2019-02-26,7,0,"public",2020-12-09,52.37,4.89
"607","Informs DFW Chapter","Dallas","USA","US/Canada",146,"https://www.meetup.com/informs-dfw-chapter/",2021-01-11,2,0,"public",2021-04-21,32.91,-96.73
"608","Angat Tech","Manila","Philippines","Asia",141,"https://www.meetup.com/Angat-Tech/",2020-01-30,2,0,"public",2020-03-19,14.62,120.97
"609","Bioinformatics London","London","United Kingdom","Europe",823,"https://www.meetup.com/Bioinformatics-London/",2015-09-05,42,6,"public",2021-06-24,51.52,-0.1
"610","New York City R/Bioconductor for Genomics","New York","USA","US/Canada",816,"https://www.meetup.com/BiocNYC/",2017-09-05,16,0,"public",2020-05-28,40.75,-73.99
"611","R-Ladies Lima","Lima","Peru","Latin America",1712,"https://www.meetup.com/rladies-lima/",2018-01-25,15,0,"public",2021-05-29,-12.07,-77.05
"612","R-Ladies San Jose","San Jose","Costa Rica","Latin America",625,"https://www.meetup.com/rladies-san-jose/",2017-10-09,23,0,"public",2020-10-08,9.93,-84.08
"613","Tallinn R Users Group","Tallinn","Estonia","Europe",149,"https://www.meetup.com/r-tallinn/",2019-08-16,3,0,"public",2021-06-29,59.44,24.74
"614","R-Ladies Barcelona","Barcelona","Spain","Europe",670,"https://www.meetup.com/rladies-barcelona/",2016-10-22,23,0,"public",2021-06-29,41.4,2.17
"615","R-Ladies Madrid","Madrid","Spain","Europe",1784,"https://www.meetup.com/rladies-madrid/",2016-09-02,45,0,"public",2021-06-17,40.42,-3.71
"616","IBM Power Systems Users","Southfield","USA","US/Canada",130,"https://www.meetup.com/IBM-Power-Systems-Users/",2018-02-19,7,0,"public",2020-07-29,42.47,-83.29
"617","The East Bay R Language Enthusiasts Group","Oakland","USA","US/Canada",1727,"https://www.meetup.com/r-enthusiasts/",2012-01-28,92,0,"public",2020-02-12,37.81,-122.27
"618","DataViz Wellington","Wellington","New Zealand","Australia",762,"https://www.meetup.com/DataViz-Wellington/",2018-08-30,19,0,"public",2020-11-25,-41.28,174.78
"619","Hong Kong Experienced Software Developer Meetup Group","Hong Kong","Hong Kong","Asia",20,"https://www.meetup.com/hong-kong-experienced-software-developer-meetup-group/",2021-06-19,3,2,"public",2021-07-13,22.27,114.14
"620","R-Ladies Guayaquil","Guayaquil","Ecuador","Latin America",632,"https://www.meetup.com/rladies-guayaquil/",2018-04-05,13,1,"public",2021-07-08,-2.21,-79.9
"621","Bangalore Programmer Group - C/Data Structures and Algo","Bangalore","India","Asia",172,"https://www.meetup.com/bangalore-cprogramming/",2019-11-27,2,0,"public",2019-12-08,12.97,77.56
"622","The Project Management Group- Hyderabad Chapter","Hyderabad","India","Asia",33,"https://www.meetup.com/the-data-discussion/",2020-12-23,1,0,"public",2021-01-03,17.4,78.48
"623","Analytics Para Todos - Panama Group","Panamá","Panama","Latin America",72,"https://www.meetup.com/analytics-en-espanol/",2021-02-01,2,0,"public",2021-02-18,8.97,-79.53
"624","RASA Community  Chapter Madrid - Spain","Madrid","Spain","Europe",61,"https://www.meetup.com/RASA-Chatbots-Community-Spain/",2020-03-02,2,0,"public",2020-10-21,40.42,-3.71
"625","Israel Tech Challenge","Tel Aviv-Yafo","Israel","Asia",156,"https://www.meetup.com/Itc-tech/",2018-07-16,15,0,"public",2020-01-14,32.07,34.77
"626","Fairness in AI","Amsterdam","Netherlands","Europe",112,"https://www.meetup.com/Fairness-in-AI/",2020-02-19,0,0,"public",1970-01-01,52.37,4.89
"627","R-Ladies Frankfurt","Frankfurt","Germany","Europe",114,"https://www.meetup.com/rladies-frankfurt/",2019-02-27,9,0,"public",2020-02-20,50.12,8.68
"628","R-Ladies Newcastle","Newcastle Upon Tyne","United Kingdom","Europe",265,"https://www.meetup.com/rladies-newcastle/",2019-02-27,10,0,"public",2020-04-03,55,-1.6
"629","R-Ladies Baltimore","Baltimore","USA","US/Canada",894,"https://www.meetup.com/rladies-baltimore/",2018-02-26,22,0,"public",2021-04-01,39.29,-76.62
"630","Triangle Julia Users","Raleigh","USA","US/Canada",152,"https://www.meetup.com/Triangle-Julia-Users/",2014-01-26,14,0,"public",2016-12-13,35.79,-78.65
"631","R-Ladies Amsterdam","Amsterdam","Netherlands","Europe",1113,"https://www.meetup.com/rladies-amsterdam/",2018-02-10,29,0,"public",2021-06-22,52.37,4.89
"632","R-Ladies San Diego","San Diego","USA","US/Canada",634,"https://www.meetup.com/rladies-san-diego/",2017-06-16,35,0,"public",2021-02-10,32.75,-117.17
"633","R-Ladies Lausanne","Lausanne","Switzerland","Europe",317,"https://www.meetup.com/rladies-lausanne/",2017-12-02,12,0,"public",2019-12-03,46.52,6.62
"634","R-Ladies Manchester","Manchester","United Kingdom","Europe",481,"https://www.meetup.com/rladies-manchester/",2016-11-29,20,0,"public",2020-04-07,53.47,-2.23
"635","R-Ladies Lancaster","Lancaster","United Kingdom","Europe",134,"https://www.meetup.com/rladies-lancaster/",2018-09-12,8,0,"public",2020-03-04,54.05,-2.8
"636","CoderGirls Aarhus","Århus","Denmark","Europe",106,"https://www.meetup.com/codergirls_aarhus/",2016-06-03,59,0,"public",2021-04-30,56.16,10.21
"637","Digital India","Noida","India","Asia",423,"https://www.meetup.com/Digital-India/",2015-09-27,0,0,"public",1970-01-01,28.58,77.33
"638","R-Ladies Johannesburg","Johannesburg","South Africa","Africa",874,"https://www.meetup.com/rladies-johannesburg/",2018-02-26,31,0,"public",2021-07-02,-26.19,28.04
"639","R-Ladies Ames","Ames","USA","US/Canada",263,"https://www.meetup.com/rladies-ames/",2016-11-25,80,0,"public",2021-07-07,42.03,-93.64
"640","R-Ladies Bilbao","Bilbao","Spain","Europe",199,"https://www.meetup.com/rladies-bilbao/",2019-02-27,4,0,"public",2020-01-14,43.25,-2.93
"641","BernR","Bern","Switzerland","Europe",188,"https://www.meetup.com/Bern-R/",2018-11-08,13,0,"public",2019-12-09,46.95,7.44
"642","R-Ladies Tampa","Tampa","USA","US/Canada",316,"https://www.meetup.com/rladies-tampa/",2018-03-11,33,0,"public",2020-09-12,27.98,-82.34
"643","R-Ladies Santa Barbara","Santa Barbara","USA","US/Canada",519,"https://www.meetup.com/rladies-santa-barbara/",2018-01-26,18,0,"public",2021-06-23,34.42,-119.71
"644","R-Ladies Cape Town","Cape Town","South Africa","Africa",719,"https://www.meetup.com/rladies-cape-town/",2017-03-06,30,0,"public",2020-10-28,-33.93,18.46
"645","Göttingen R User Group","Göttingen","Germany","Europe",47,"https://www.meetup.com/Gottingen-Software-Development-Meetup/",2019-02-05,2,0,"public",2019-12-04,51.53,9.92
"646","Rock Solid Computer Programming","New York","USA","US/Canada",205,"https://www.meetup.com/Rock-Solid-Computer-Programming/",2020-07-02,16,0,"public",2020-09-24,40.75,-73.99
"647","Michiana R Users Group","Granger","USA","US/Canada",36,"https://www.meetup.com/meetup-group-gLOzoDRd/",2020-02-24,3,0,"public",2020-11-20,41.74,-86.16
"648","R-Ladies Nashville","Nashville","USA","US/Canada",513,"https://www.meetup.com/rladies-nashville/",2016-09-28,18,0,"public",2020-03-09,36.17,-86.78
"649","R-Ladies El Paso","El Paso","USA","US/Canada",63,"https://www.meetup.com/rladies-el-paso/",2019-04-19,4,0,"public",2020-03-12,31.76,-106.49
"650","Komunitas R Indonesia","Jakarta","Indonesia","Asia",1191,"https://www.meetup.com/r-indonesia/",2019-04-28,10,0,"public",2020-12-28,-6.18,106.83
"651","R-Ladies Taipei","Taipei","Taiwan","Asia",1799,"https://www.meetup.com/rladies-taipei/",2016-10-23,47,0,"public",2021-04-26,25.02,121.45
"652","R-Ladies Canberra","Canberra","Australia","Australia",212,"https://www.meetup.com/rladies-canberra/",2018-12-10,14,0,"public",2021-03-02,-35.31,149.13
"653","R en Rosario","Rosario","Argentina","Latin America",593,"https://www.meetup.com/R-en-Rosario/",2018-10-03,16,1,"public",2021-03-18,-32.95,-60.67
"654","R-Ladies Paris","Paris","France","Europe",603,"https://www.meetup.com/rladies-paris/",2016-09-19,15,0,"public",2019-06-14,48.86,2.34
"655","EdinbR: The Edinburgh R Usergroup","Edinburgh","United Kingdom","Europe",681,"https://www.meetup.com/EdinbR/",2018-09-16,23,0,"public",2021-06-14,55.94,-3.19
"656","R-Ladies Mendoza","Mendoza","Argentina","Latin America",297,"https://www.meetup.com/rladies-mendoza/",2018-02-26,12,0,"public_limited",2020-12-07,-32.89,-68.83
"657","R-Ladies Pasadena","Pasadena","USA","US/Canada",95,"https://www.meetup.com/rladies-pasadena/",2018-04-25,5,0,"public",2019-11-07,34.15,-118.14
"658","R-Ladies Bergen","Bergen","Norway","Europe",297,"https://www.meetup.com/rladies-bergen/",2019-10-28,16,0,"public",2021-06-24,60.38,5.34
"659","adminR: R in Swiss Official Statistics","Bern","Switzerland","Europe",315,"https://www.meetup.com/adminR/",2018-08-19,4,0,"public",2021-03-18,46.95,7.44
"660","R for Quantitative Finance","Dublin","Ireland","Europe",72,"https://www.meetup.com/R-for-Quantitative-Finance/",2019-10-06,0,0,"public",1970-01-01,53.33,-6.25
"661","R-Ladies Istanbul","Istanbul","Turkey","Europe",1939,"https://www.meetup.com/rladies-istanbul/",2016-09-06,36,0,"public",2021-03-08,41.01,28.96
"662","R-Ladies Recife","Recife","Brazil","Latin America",151,"https://www.meetup.com/rladies-recife/",2019-09-02,1,0,"public",2019-09-12,-8.08,-34.92
"663","R en Buenos Aires","Buenos Aires","Argentina","Latin America",847,"https://www.meetup.com/renbaires/",2018-10-04,16,0,"public",2021-06-19,-34.61,-58.37
"664","Chicago Big Data Analytics Meetup","Chicago","USA","US/Canada",1521,"https://www.meetup.com/Chicago-Big-Data-Analytics-Meetup/",2013-10-13,102,6,"public",2017-11-29,41.88,-87.65
"665","Big Data Analytics: Mobile, Social and Web","San Jose","USA","US/Canada",3067,"https://www.meetup.com/Big-Data-Analytics-Mobile-Social-and-Web/",2011-06-21,59,0,"public",2017-06-22,37.34,-121.9
"666","Scotland Data Science & Technology Meetup","Edinburgh","United Kingdom","Europe",4857,"https://www.meetup.com/Scotland-Data-Science-Technology-Meetup/",2015-04-07,131,4,"public",2021-06-30,55.95,-3.22
"667","Digital Marketing + Data Science -Ateliers Q/R Gratuits Lyon","Lyon","France","Europe",589,"https://www.meetup.com/Digital-Marketing-Data-Science-Ateliers-Q-R-Gratuits/",2018-06-25,18,0,"public",2020-05-28,45.76,4.83
"668","Predictive Analytics and Data Science using Spark, R, Python","Los Angeles","USA","US/Canada",749,"https://www.meetup.com/Predictive-Analytics-and-Data-Science-using-Spark-R-Python/",2016-06-23,46,0,"public",2021-03-21,33.97,-118.24
"669","MünsteR (R Users Group)","Münster","Germany","Europe",581,"https://www.meetup.com/Munster-R-Users-Group/",2017-05-16,42,0,"public_limited",2021-07-14,51.96,7.62
"670","Delhi R Data Analytics Meetup","Delhi","India","Asia",348,"https://www.meetup.com/Delhi-R-Data-Analytics-Meetup/",2014-08-15,0,1,"public",1970-01-01,28.67,77.21
"671","Big Data & Predictive Analytics using R - Rio de Janeiro","Rio de Janeiro","Brazil","Latin America",809,"https://www.meetup.com/Big-Data-Predictive-Analytics-using-R-Rio-de-Janeiro/",2014-10-10,18,0,"public",2015-08-07,-22.91,-43.2
"672","Bauchi R User Group (BauchiRUG)","Bauchi","Nigeria","Africa",199,"https://www.meetup.com/Bauchi-R-User-Group-BauchiRUG/",2018-07-04,6,0,"public",2021-06-05,10.31,9.84
"673","SkåneR UseR! Group","Malmö","Sweden","Europe",205,"https://www.meetup.com/Skane-R-User-Group/",2020-02-08,7,0,"public",2021-04-29,55.61,13.02
"674","SageMaker User Group Chicago","Chicago","USA","US/Canada",186,"https://www.meetup.com/SageMaker-User-Group-Chicago/",2020-01-03,2,0,"public",2020-04-08,41.9,-87.67
"675","SageMaker User Group Columbus","Columbus","USA","US/Canada",13,"https://www.meetup.com/SageMaker-User-Group-Columbus/",2020-04-29,0,0,"public",1970-01-01,39.99,-83.04
"676","Video Analytics, Edge to Data Center by C.R.G & NVIDIA","Petakh Tiqwa","Israel","Asia",120,"https://www.meetup.com/Video-Analytics-Edge-to-Data-Center-by-C-R-G-NVIDIA/",2019-01-01,1,0,"public",2019-01-22,32.09,34.88
"677","Use R! INMEGEN 2019","México City","Mexico","Latin America",234,"https://www.meetup.com/Use-R-INMEGEN-2019/",2018-10-04,1,0,"public",2019-02-25,19.43,-99.14
"678","Algiers R User Group","Algiers","Algeria","Africa",119,"https://www.meetup.com/algiers-r-user-group/",2020-09-25,1,0,"public",2021-04-06,36.75,3.06
"679","Bristol R User Group","Bristol","United Kingdom","Europe",476,"https://www.meetup.com/Bristol-R-User-Group/",2018-10-03,8,0,"public",2020-06-29,51.46,-2.6
"680","Predictive Business Analytics with R - New Delhi","Delhi","India","Asia",1616,"https://www.meetup.com/Predictive-Business-Analytics-with-R-New-Delhi/",2014-08-31,7,0,"public",2016-04-23,28.67,77.21
"681","Omaha R Users Group","Omaha","USA","US/Canada",216,"https://www.meetup.com/Omaha-R-Users-Group/",2018-03-05,5,0,"public",2019-11-07,41.26,-95.93
"682","R User Group Rhein-Neckar","Heidelberg","Germany","Europe",313,"https://www.meetup.com/R-User-Group-Rhein-Neckar/",2011-11-01,49,1,"public",2021-07-13,49.42,8.69
"683","Hyderabad R Programming Meetup","Hyderabad","India","Asia",298,"https://www.meetup.com/Hyderabad-R-Programming-Meetup/",2014-09-11,0,1,"public",1970-01-01,17.4,78.48
"684","MapR Users Meetup","Makati","Philippines","Asia",142,"https://www.meetup.com/MapR-Users-Meetup/",2018-03-18,1,0,"public",2018-05-16,14.55,121.02
"685","Predictive Business Analytics using R","Buenos Aires","Argentina","Latin America",128,"https://www.meetup.com/Predictive-Business-Analytics-using-R/",2015-06-21,2,0,"public",2015-07-10,-34.61,-58.37
"686","Dubai Computer programming Meetup Group","Dubai","U.A.E.","Asia",18,"https://www.meetup.com/Dubai-Computer-programming-Meetup-Group/",2020-06-05,1,0,"public",2020-07-08,25.27,55.33
"687","Salt Lake City R Language Study Group","Salt Lake City","USA","US/Canada",280,"https://www.meetup.com/Salt-Lake-City-R-Language-Study-Group/",2018-04-05,34,0,"public",2020-07-12,40.76,-111.87
"688","Wroclaw R user Group - WRUG","Wroclaw","Poland","Europe",38,"https://www.meetup.com/Wroclaw-R-user-Group-WRUG/",2013-04-14,1,0,"public",2013-06-20,51.11,17.03
"689","R-Ladies Washington D.C.","Washington","USA","US/Canada",2289,"https://www.meetup.com/rladies-dc/",2016-12-07,107,5,"public",2021-07-15,38.91,-77.02
"690","Dublin R","Dublin","Ireland","Europe",2305,"https://www.meetup.com/DublinR/",2011-11-04,207,2,"public",2021-07-15,53.33,-6.25
"691","R Users Group Kenya (RUGK)","Nairobi","Kenya","Africa",92,"https://www.meetup.com/R-Users-Group-Kenya-RUGK/",2014-08-29,0,0,"public",1970-01-01,-1.29,36.82
"692","Bogotá R Users Group","Bogotá","Colombia","Latin America",1611,"https://www.meetup.com/Bogota-R-Users-Group/",2013-09-18,31,1,"public",2021-05-06,4.63,-74.09
"693","MadR - Madison R Programming UseRs Group","Madison","USA","US/Canada",628,"https://www.meetup.com/MadR-Madison-R-Programming-UseRs-Group/",2014-01-10,47,0,"public",2020-02-28,43.08,-89.38
"694","R-Ladies Buffalo","Buffalo","USA","US/Canada",28,"https://www.meetup.com/rladies-buffalo/",2017-05-28,4,0,"public",2019-11-21,42.9,-78.88
"695","Seattle useR Group (R Programming Language)","Seattle","USA","US/Canada",2846,"https://www.meetup.com/Seattle-useR/",2009-12-12,84,0,"public",2021-01-28,47.66,-122.29
"696","Houston R Users Group","Houston","USA","US/Canada",1403,"https://www.meetup.com/houstonr/",2010-11-01,80,0,"public",2019-12-04,29.72,-95.22
"697","Canberra R Users Group","Canberra","Australia","Australia",332,"https://www.meetup.com/Canberra-R-Users-Group/",2010-07-19,34,0,"public",2019-11-28,-35.31,149.13
"698","R-Ladies RTP","Durham","USA","US/Canada",852,"https://www.meetup.com/rladies-rtp/",2016-08-15,56,0,"public",2021-07-18,36,-78.9
"699","Statistical Seminars DC","Washington","USA","US/Canada",1964,"https://www.meetup.com/Statistical-Seminars-DC/",2018-07-07,107,3,"public",2021-06-19,38.91,-77.02
"700","Hamburg R User Group","Hamburg","Germany","Europe",847,"https://www.meetup.com/Hamburg-R-User-Group/",2014-09-20,21,0,"public",2021-05-18,53.55,10
"701","Statistics Meet n’ Greet","New York","USA","US/Canada",71,"https://www.meetup.com/New-York-Applied-Statistics-Meetup-Group/",2020-03-14,0,0,"public",1970-01-01,40.75,-73.99
"702","Applied Math and Statistics","New York","USA","US/Canada",334,"https://www.meetup.com/applied-math-and-statistics/",2020-02-06,4,0,"public",2021-04-10,40.75,-73.99
"703","A-State R User Group","Jonesboro","USA","US/Canada",33,"https://www.meetup.com/meetup-group-SPnWerAb/",2020-04-01,3,0,"public",2020-09-21,35.82,-90.7
"704","R-Ladies Los Angeles","Los Angeles","USA","US/Canada",629,"https://www.meetup.com/rladies-la/",2016-09-02,32,0,"public",2020-07-29,34.07,-118.45
"705","R Users Group Hyderabad(RUGH)","Hyderabad","India","Asia",508,"https://www.meetup.com/R-Users-Group-Hyderabad/",2013-09-15,5,0,"public",2018-01-27,17.4,78.48
"706","XMU-R","Xiamen","China","Asia",245,"https://www.meetup.com/RGROUP/",2014-09-11,22,0,"public",2015-01-12,24.45,118.08
"707","Botswana R Users","Gaborone","Botswana","Africa",76,"https://www.meetup.com/Botswana-R-Users/",2020-02-04,3,0,"public",2021-03-12,-24.65,25.91
"708","R-Ladies CDMX","México City","Mexico","Latin America",2130,"https://www.meetup.com/rladies-cdmx/",2017-07-04,24,0,"public",2021-07-15,19.43,-99.14
"709","Köln R User Group","Köln","Germany","Europe",1022,"https://www.meetup.com/KoelnRUG/",2012-03-30,32,0,"public",2021-07-01,50.95,6.97
"710","EPIC Centre for Quantum Computing","Kozhikode","India","Asia",707,"https://www.meetup.com/EPICCenterforQuantumComputing/",2017-11-29,55,0,"public",2021-07-08,11.26,75.78
"711","R-Ladies Rio de Janeiro","Rio de Janeiro","Brazil","Latin America",607,"https://www.meetup.com/rladies-rio/",2017-02-27,11,0,"public_limited",2020-09-30,-22.91,-43.2
"712","R-Ladies Madison","Madison","USA","US/Canada",123,"https://www.meetup.com/R-Ladies-Madison/",2019-04-30,10,0,"public",2021-01-22,43.07,-89.38
"713","R-Ladies Tbilisi","Tbilisi","Georgia","Asia",340,"https://www.meetup.com/rladies-tbilisi/",2016-11-29,74,0,"public",2021-07-15,41.72,44.79
"714","R-Ladies Berlin","Berlin","Germany","Europe",660,"https://www.meetup.com/rladies-berlin/",2016-10-31,28,0,"public",2020-11-04,52.52,13.38
"715","R-Ladies St. Louis","Saint Louis","USA","US/Canada",814,"https://www.meetup.com/rladies-st-louis/",2017-08-28,22,0,"public",2021-04-13,38.63,-90.19
"716","Business analytics and R Business","Melbourne","Australia","Australia",79,"https://www.meetup.com/r-business/",2021-04-10,1,1,"public",2021-06-10,-37.81,144.96
"717","R-Ladies Yaoundé","Yaoundé","Cameroon","Africa",59,"https://www.meetup.com/rladies-yaounde/",2020-01-05,0,0,"public",1970-01-01,3.87,11.52
"718","Lads and Lasses Who R","Merrifield","USA","US/Canada",232,"https://www.meetup.com/Lads-and-Lasses-Who-R/",2018-07-16,17,0,"public_limited",2019-12-17,38.87,-77.24
"719","Pune  R users Meetup","Pune","India","Asia",220,"https://www.meetup.com/Pune-R-junkies-Meetup/",2014-11-30,0,1,"public",1970-01-01,18.53,73.84
"720","R-Ladies Fayetteville","Fayetteville","USA","US/Canada",130,"https://www.meetup.com/rladies-fayetteville/",2019-07-27,11,0,"public",2021-01-27,36.05,-94.14
"721","R-Ladies Seattle","Seattle","USA","US/Canada",1026,"https://www.meetup.com/rladies-seattle/",2017-11-08,43,0,"public",2021-07-20,47.61,-122.33
"722","R Skopje","Skopje","Macedonia","Europe",34,"https://www.meetup.com/RSkopje/",2020-02-29,4,0,"public",2020-12-24,42,21.47
"723","R-Ladies Manaus","Manaus","Brazil","Latin America",30,"https://www.meetup.com/R-Ladies-Manaus/",2019-09-11,0,0,"public",1970-01-01,-3.12,-60.02
"724","CinDay RUG","Dayton","USA","US/Canada",302,"https://www.meetup.com/CinDay-RUG/",2010-11-10,47,0,"public",2021-02-16,39.72,-84.19
"725","Taiwan R User Group / MLDM Monday","Taipei","Taiwan","Asia",7305,"https://www.meetup.com/Taiwan-R/",2012-09-28,361,0,"public",2021-04-26,25.02,121.45
"726","R-Ladies Strasbourg","Strasbourg","France","Europe",82,"https://www.meetup.com/rladies-strasbourg/",2017-09-27,12,0,"public",2021-03-11,48.58,7.75
"727","eRfahrungsaustausch zum Thema ""R"" in Esslingen","Esslingen","Germany","Europe",30,"https://www.meetup.com/eRfahrungsaustausch-zum-Thema-R-in-Esslingen/",2017-11-25,4,0,"public",2018-04-12,48.74,9.32
"728","R4HR - Club de R para RRHH","Buenos Aires","Argentina","Latin America",11,"https://www.meetup.com/r4hr-club-r-para-rrhh/",2021-07-16,0,0,"public",1970-01-01,-34.61,-58.37
"729","Kolkata Data Science Meetup","Kolkata","India","Asia",979,"https://www.meetup.com/Kolkata-Data-Science-Meetup/",2014-12-03,1,0,"public",2014-12-16,22.57,88.36
"730","Bayesian Data Analysis","New York","USA","US/Canada",1820,"https://www.meetup.com/bda-group/",2014-04-22,39,0,"public",2021-07-21,40.81,-73.95
"731","RBelgium","Brussels","Belgium","Europe",765,"https://www.meetup.com/RBelgium/",2011-12-19,22,0,"public",2020-11-04,50.83,4.33
"732","London Probability Theory Meetup","London","United Kingdom","Europe",127,"https://www.meetup.com/London-Probability-Theory-Meetup/",2017-04-09,0,0,"public",1970-01-01,51.52,-0.1
"733","Stan Users - Boston/Camberville","Cambridge","USA","US/Canada",401,"https://www.meetup.com/Stan-Users-Boston-Camberville/",2015-09-02,17,0,"public",2019-01-23,42.38,-71.13
"734","Ha Noi R Users Group Meetup","Ha Noi","Vietnam","Asia",373,"https://www.meetup.com/Ha-Noi-R-Users-Group-Meetup/",2014-11-13,0,0,"public",1970-01-01,21.03,105.84
"735","Nijmegen eveRybody","Nijmegen","Netherlands","Europe",255,"https://www.meetup.com/Nijmegen-eveRybody/",2015-04-11,6,0,"public",2017-01-25,51.84,5.85
"736","Brooklyn Advanced Marketing Methods","Brooklyn","USA","US/Canada",16,"https://www.meetup.com/Brooklyn-Advanced-Marketing-Methods/",2019-02-12,0,0,"public",1970-01-01,40.7,-73.99
"737","Meetup: Bayesian Econometrics","Medellín","Colombia","Latin America",50,"https://www.meetup.com/Meetup-Bayesian-Econometrics/",2016-06-23,0,0,"public",1970-01-01,6.25,-75.59
"738","St. Louis Machine Learning & Data Science","Saint Louis","USA","US/Canada",2352,"https://www.meetup.com/St-Louis-Machine-Learning/",2012-07-17,93,0,"public",2021-05-11,38.59,-90.3
"739","ODSC London Data Science","London","United Kingdom","Europe",6719,"https://www.meetup.com/London-Data-Science-ODSC/",2015-06-29,157,3,"public",2021-07-20,51.52,-0.1
"740","San Francisco Data Science ODSC","San Francisco","USA","US/Canada",4107,"https://www.meetup.com/San-Francisco-ODSC/",2015-06-26,181,3,"public",2021-07-20,37.78,-122.42
"741","ODSC Data Science Boston","Cambridge","USA","US/Canada",2836,"https://www.meetup.com/odsc-open-source-data-science/",2013-09-09,209,3,"public",2021-07-20,42.37,-71.09
"742","France KNIME Users","Paris","France","Europe",338,"https://www.meetup.com/Paris-KNIME-Users/",2015-04-27,33,0,"public",2021-07-07,48.86,2.34
"743","RLyon","Lyon","France","Europe",129,"https://www.meetup.com/R-Lyon/",2013-11-19,6,0,"public",2016-03-18,45.76,4.83
"744","useR Group in San Luis Obispo County","San Luis Obispo","USA","US/Canada",277,"https://www.meetup.com/useR-Group-in-San-Luis-Obispo-County/",2019-03-18,32,0,"public",2021-04-10,35.26,-120.65
"745","PyData Athens","Athens","Greece","Europe",1182,"https://www.meetup.com/PyData-Athens/",2018-04-13,15,0,"public",2020-11-11,37.98,23.73
"746","Quants for good","New York","USA","US/Canada",3616,"https://www.meetup.com/quantsforgood/",2013-11-01,15,0,"public",2017-08-23,40.74,-74
"747","Silicon Valley Data Science Journal Club","Mountain View","USA","US/Canada",940,"https://www.meetup.com/Silicon-Valley-Data-Science-Journal-Club/",2013-07-01,46,0,"public",2017-10-31,37.38,-122.08
"748","BigNumber Austin","Austin","USA","US/Canada",160,"https://www.meetup.com/bignumber-austin/",2020-08-26,9,1,"public",2021-03-05,30.22,-97.75
"749","PyData Istanbul","Istanbul","Turkey","Europe",1450,"https://www.meetup.com/PyData-Istanbul/",2016-11-07,8,0,"public",2017-11-11,41.01,28.96
"750","Delhi R Users Group Meetup","Delhi","India","Asia",114,"https://www.meetup.com/Delhi-R-Users-Group-Meetup/",2014-05-22,0,0,"public",1970-01-01,28.67,77.21
"751","MiraiLabs | Data Science Workshops","Zürich","Switzerland","Europe",171,"https://www.meetup.com/MiraiLabs-Data-Science-Workshops/",2019-06-24,1,0,"public",2019-09-24,47.38,8.54
"752","PyData Cardiff Meetup","Cardiff","United Kingdom","Europe",936,"https://www.meetup.com/PyData-Cardiff-Meetup/",2018-02-06,12,0,"public",2020-02-11,51.48,-3.18
"753","Data Science Floripa","Florianópolis","Brazil","Latin America",1935,"https://www.meetup.com/dsfloripa/",2015-04-16,17,0,"public",2020-02-18,-27.6,-48.54
"754","Boston-area Women in Bioinformatics","Cambridge","USA","US/Canada",987,"https://www.meetup.com/boston-area-womens-bioinformatics/",2015-03-27,42,0,"public_limited",2021-06-14,42.37,-71.1
"755","Toronto - Cognitive, AI & Data Science Meetup","Toronto","Canada","US/Canada",12727,"https://www.meetup.com/Cognitive-Toronto/",2014-03-17,134,0,"public",2021-07-14,43.67,-79.38
"756","Colchester Scientific Programming Meetup Group","Colchester","United Kingdom","Europe",36,"https://www.meetup.com/colchester-scientific-programming-meetup-group/",2021-03-08,16,0,"public",2021-06-18,51.88,0.9
"757","Uppsala useRs","Uppsala","Sweden","Europe",12,"https://www.meetup.com/uppsala-users/",2021-04-09,0,0,"public",1970-01-01,59.86,17.64
"758","Alpine Data Lovers","Garmisch-Partenkirchen","Germany","Europe",63,"https://www.meetup.com/alpine-data-lovers/",2019-12-18,8,1,"public",2021-02-09,47.5,11.08
"759","Bath Machine Learning Meetup","Bath","United Kingdom","Europe",726,"https://www.meetup.com/BathML/",2016-10-03,34,0,"public",2020-04-23,51.38,-2.38
"760","Datascience in Finance, Paris","Paris","France","Europe",556,"https://www.meetup.com/Datascience-in-Finance-Paris/",2015-06-23,4,0,"public",2017-07-12,48.86,2.34
"761","Find a Tech Job","London","United Kingdom","Europe",4910,"https://www.meetup.com/Find-A-tech-Job-In-London/",2012-05-24,53,0,"public",2020-11-03,51.52,-0.08
"762","Seacoast (ME/NH) Data Science Meetup","Portsmouth","USA","US/Canada",128,"https://www.meetup.com/Seacoast-ME-NH-Data-Science-Meetup/",2016-01-15,1,0,"public",2016-02-09,43.07,-70.78
"763","NYCFinance","New York","USA","US/Canada",309,"https://www.meetup.com/NYCFinance/",2018-02-17,193,3,"public",2021-07-20,40.75,-73.99
"764","LABDATA - FIA","São Paulo","Brazil","Latin America",1401,"https://www.meetup.com/labdata-fia/",2020-02-05,24,1,"public",2021-06-01,-23.53,-46.63
"765","Dutch Data Science Meetup Group","Delft","Netherlands","Europe",1092,"https://www.meetup.com/Dutch-Data-Science-Meetup-Group/",2015-03-09,6,0,"public",2018-05-25,52.01,4.36
"766","Timeseries Forecasting and Event Analytics Melbourne Meetup","Melbourne","Australia","Australia",1164,"https://www.meetup.com/Timeseries-Forecasting-and-Event-Analytics-Melbourne-Meetup/",2018-05-23,14,0,"public",2020-11-05,-37.81,144.96
"767","ODSC New York Accelerate AI (AIx)","New York","USA","US/Canada",3106,"https://www.meetup.com/New-York-ODSC/",2015-06-29,177,3,"public",2021-07-20,40.72,-74
"768","Lyon Data Science","Lyon","France","Europe",3310,"https://www.meetup.com/Lyon-Data-Science/",2015-08-24,54,0,"public",2021-06-29,45.76,4.83
"769","Hitchin Data Science Meetup Group","Hitchin","United Kingdom","Europe",57,"https://www.meetup.com/Hitchin-Data-Science-Meetup-Group/",2019-08-23,5,0,"public",2020-02-19,51.96,-0.28
"770","Burlington Data Scientists","Burlington","USA","US/Canada",787,"https://www.meetup.com/Burlington-Data-Scientists/",2013-07-31,75,0,"public",2020-03-04,44.49,-73.23
"771","Code•It! Little Rock Dev Meetup","Little Rock","USA","US/Canada",272,"https://www.meetup.com/Code-It-Little-Rock-Dev-Meetup/",2016-03-09,6,0,"public",2017-05-02,34.75,-92.28
"772","Colombo Haskell Meetup","Dehiwala-Mount Lavinia","Sri Lanka","Asia",380,"https://www.meetup.com/Colombo-Haskell-Meetup/",2017-03-30,0,0,"public",1970-01-01,6.85,79.87
"773","Chicago Cloud Foundry User Group","Chicago","USA","US/Canada",1528,"https://www.meetup.com/Chicago-Cloud-Foundry-User-Group/",2014-06-30,17,0,"public",2019-05-07,41.88,-87.64
"774","Singapore Apache Druid® Meetup by Imply","Singapore","Singapore","Asia",53,"https://www.meetup.com/Singapore-Apache-Druid-Meetup-by-Imply/",2020-01-07,5,0,"public",2020-12-15,1.3,103.85
"775","Scala for Startups is merged into SF Scala","San Francisco","USA","US/Canada",249,"https://www.meetup.com/Scala-for-Startups/",2011-09-10,18,0,"public",2013-03-28,37.77,-122.4
"776","Bay Area Apache Druid® Meetup by Imply","Burlingame","USA","US/Canada",2224,"https://www.meetup.com/druidio/",2013-03-05,46,0,"public",2021-06-23,37.57,-122.36
"777","Applied Machine Learning by Cubonacci","Amsterdam","Netherlands","Europe",306,"https://www.meetup.com/Applied-Machine-Learning-by-Cubonacci/",2019-11-18,3,0,"public",2020-05-21,52.37,4.89
"778","Bay Area Chromatin and Epigenomics Group","San Francisco","USA","US/Canada",432,"https://www.meetup.com/bay-area-chromatin-and-epigenomics-group/",2019-12-21,16,0,"public",2021-06-29,37.78,-122.42
"779","Pune Big Data Analytics Meetup","Pune","India","Asia",5713,"https://www.meetup.com/meetup-group-mBrnrixQ/",2017-03-22,305,0,"public",2020-04-28,18.53,73.84
"780","Kaohsiung Python Meetup","Kaohsiung","Taiwan","Asia",658,"https://www.meetup.com/Kaohsiung-Python-Meetup/",2015-10-09,48,0,"public",2020-01-03,22.63,120.27
"781","SwissAI Geneva Meetup","Genève","Switzerland","Europe",505,"https://www.meetup.com/SwissAI-Geneva/",2011-01-12,9,0,"public",2020-09-23,46.21,6.14
"782","Open Cities Lab","Durban","South Africa","Africa",572,"https://www.meetup.com/Open-Cities-Lab/",2015-05-18,56,0,"public",2018-03-03,-29.87,30.99
"783","Greenville Data Science & Analytics Meetup","Greenville","USA","US/Canada",559,"https://www.meetup.com/Greenville-Data-Science-Analytics-Meetup/",2015-09-16,23,0,"public_limited",2019-12-03,34.87,-82.31
"784","ATLytiCS: Analytics For Good","Atlanta","USA","US/Canada",1831,"https://www.meetup.com/ATLytiCS-Analytics-For-Good/",2018-06-23,18,0,"public",2021-05-24,33.75,-84.39
"785","Chicago Big Data","Chicago","USA","US/Canada",3197,"https://www.meetup.com/Chicago-Big-Data/",2011-01-31,92,0,"public",2017-11-02,41.88,-87.64
"786","San Diego Data Science Learners","San Diego","USA","US/Canada",71,"https://www.meetup.com/san-diego-data-science-learners/",2021-04-13,1,0,"public",2021-05-28,32.82,-117.2
"787","Chicago Indie Hackers","Chicago","USA","US/Canada",395,"https://www.meetup.com/Chicago-Indie-Hackers/",2018-03-28,14,0,"public",2021-07-21,41.84,-87.63
"788","Data Science Brest","Brest","France","Europe",693,"https://www.meetup.com/Data-Science-Brest/",2016-11-10,37,0,"public",2021-04-29,48.39,-4.5
"789","Data Visualization Group in the Bay Area","San Francisco","USA","US/Canada",8077,"https://www.meetup.com/visualizemydata/",2010-08-16,95,0,"public",2021-06-09,37.77,-122.41
"790","RLadies Ribeirão Preto","Ribeirão Preto","Brazil","Latin America",312,"https://www.meetup.com/rladies-ribeirao-preto/",2020-03-06,2,1,"public",2020-11-30,-21.17,-47.8
"791","Midwest Julia Users","Chicago","USA","US/Canada",155,"https://www.meetup.com/Midwest-Julia-Users/",2016-10-13,3,1,"public",2020-07-24,41.88,-87.62
"792","Julia User Group Munich","München","Germany","Europe",311,"https://www.meetup.com/Julia-User-Group-Munich/",2020-01-08,15,1,"public",2021-07-05,48.14,11.58
"793","Milwaukee Data Science","Milwaukee","USA","US/Canada",519,"https://www.meetup.com/Milwaukee-Data-Science/",2013-10-30,12,0,"public",2019-10-10,43.05,-87.9
"794","Data Science Women","Denver","USA","US/Canada",669,"https://www.meetup.com/data-science-women/",2018-11-03,7,0,"public",2020-02-01,39.75,-104.99
"795","AI in Financial Services","Frankfurt","Germany","Europe",313,"https://www.meetup.com/AI-Big-Data-and-Network-Analysis-in-Financial-Services/",2018-01-26,4,0,"public",2021-05-25,50.12,8.68
"796","Newbury AI Meetup","Newbury","United Kingdom","Europe",411,"https://www.meetup.com/Newbury-AI-Meetup/",2018-08-24,34,0,"public_limited",2021-04-15,51.4,-1.33
"797","Argentina Data Science Meetup","Buenos Aires","Argentina","Latin America",4041,"https://www.meetup.com/Argentina-Data-Science-Meetup/",2016-01-26,11,0,"public",2019-10-03,-34.61,-58.37
"798","R-Ladies Quito","Quito","Ecuador","Latin America",820,"https://www.meetup.com/rladies-quito/",2017-07-18,10,0,"public",2020-07-01,-0.19,-78.5
"799","R-Ladies Puebla","Puebla","Mexico","Latin America",1922,"https://www.meetup.com/rladies-puebla/",2019-07-19,9,1,"public",2021-05-08,19.05,-98.22
"800","R-Ladies Salvador","Salvador","Brazil","Latin America",242,"https://www.meetup.com/rladies-salvador/",2018-07-23,6,0,"public",2020-12-12,-12.97,-38.5
"801","R-Ladies Athens","Athens","USA","US/Canada",64,"https://www.meetup.com/rladies-athens-ga/",2019-08-31,5,0,"public",2021-04-23,33.97,-83.36
"802","R-Ladies Addis Ababa","Addis Abeba","Ethiopia","Africa",543,"https://www.meetup.com/rladies-addis-ababa/",2018-03-21,26,0,"public",2021-03-09,9.03,38.74
"803","R-Ladies New Delhi","Delhi","India","Asia",342,"https://www.meetup.com/rladies-new-delhi/",2019-09-01,9,0,"public",2020-09-06,28.67,77.21
"804","R-Ladies Gainesville","Gainesville","USA","US/Canada",358,"https://www.meetup.com/rladies-gainesville/",2018-07-04,31,0,"public",2020-11-10,29.65,-82.3
"805","R-Ladies Atlanta","Atlanta","USA","US/Canada",284,"https://www.meetup.com/rladies-atlanta/",2017-12-14,6,0,"public",2019-11-15,33.86,-84.4
"806","R-Ladies Dallas","Dallas","USA","US/Canada",694,"https://www.meetup.com/rladies-dallas/",2018-03-04,35,2,"public",2021-07-12,32.79,-96.8
"807","R-Ladies Denver","Denver","USA","US/Canada",113,"https://www.meetup.com/rladies-denver/",2019-07-02,6,1,"public",2021-05-25,39.7,-105.08
"808","R-Ladies Cotonou","Cotonou","Benin","Africa",35,"https://www.meetup.com/rladies-cotonou/",2018-03-29,2,0,"public",2020-02-08,6.36,2.44
"809","R-Ladies Göteborg","Göteborg","Sweden","Europe",161,"https://www.meetup.com/rladies-goteborg/",2019-11-23,5,0,"public",2020-11-03,57.72,12.01
"810","R-Ladies Lavras","Lavras","Brazil","Latin America",60,"https://www.meetup.com/rladies-lavras/",2019-04-16,4,0,"public",2021-06-08,-21.25,-45.01
"811","R-Ladies Helsinki","Helsinki","Finland","Europe",409,"https://www.meetup.com/rladies-helsinki/",2018-09-07,15,0,"public",2021-03-10,60.17,24.94
"812","R-Ladies Jakarta","Jakarta","Indonesia","Asia",573,"https://www.meetup.com/rladies-jakarta/",2019-07-06,13,0,"public",2021-04-03,-6.18,106.83
"813","R-Ladies Mumbai","Mumbai","India","Asia",105,"https://www.meetup.com/rladies-mumbai/",2019-11-23,2,0,"public",2021-02-27,18.96,72.82
"814","R-Ladies Oxford","Oxford","United Kingdom","Europe",34,"https://www.meetup.com/rladies-oxford/",2020-01-12,0,0,"public",1970-01-01,51.76,-1.26
"815","R-Ladies Niš","Niš","Serbia","Europe",12,"https://www.meetup.com/rladies-nis/",2020-02-22,0,0,"public",1970-01-01,43.33,21.9
"816","R-Ladies Boston","Boston","USA","US/Canada",971,"https://www.meetup.com/rladies-boston/",2016-09-16,42,0,"public",2021-01-12,42.36,-71.07
"817","R-Ladies London, Ontario","London","Canada","US/Canada",464,"https://www.meetup.com/rladies-ldnont/",2017-01-17,28,0,"public",2020-03-03,43.01,-81.18
"818","R-Ladies São Paulo","São Paulo","Brazil","Latin America",1315,"https://www.meetup.com/rladies-sao-paulo/",2018-02-10,24,0,"public",2021-06-26,-23.53,-46.63
"819","R-Ladies Coventry","Coventry","United Kingdom","Europe",281,"https://www.meetup.com/rladies-coventry/",2020-02-22,5,1,"public",2021-05-18,52.42,-1.5
"820","R-Ladies Nairobi","Nairobi","Kenya","Africa",793,"https://www.meetup.com/rladies-nairobi/",2020-06-13,9,1,"public",2021-06-12,-1.29,36.82
"821","R-Ladies São Mateus","São Mateus","Brazil","Latin America",8,"https://www.meetup.com/rladies-sao-mateus/",2021-03-21,0,0,"public",1970-01-01,-18.73,-39.86
"822","R-Ladies Colombo","Colombo","Sri Lanka","Asia",286,"https://www.meetup.com/rladies-colombo/",2019-12-15,5,0,"public",2021-04-22,6.93,79.85
"823","R-Ladies Syracuse","Syracuse","USA","US/Canada",8,"https://www.meetup.com/rladies-syracuse/",2019-11-30,0,0,"public",1970-01-01,43.04,-76.15
"824","R-Ladies Kingston","Kingston","Canada","US/Canada",3,"https://www.meetup.com/rladies-kingston/",2021-03-21,0,0,"public",1970-01-01,44.22,-76.51
"825","R-Ladies New Orleans","New Orleans","USA","US/Canada",40,"https://www.meetup.com/rladies-new-orleans/",2019-11-30,1,0,"public",2020-02-11,29.96,-90.08
"826","R-Ladies Monterrey","Monterrey","Mexico","Latin America",353,"https://www.meetup.com/rladies-monterrey/",2020-01-12,8,0,"public",2021-03-05,25.67,-100.32
"827","R-Ladies Darwin","Darwin","Australia","Australia",14,"https://www.meetup.com/rladies-darwin/",2021-03-21,0,0,"public",1970-01-01,-12.46,130.84
"828","R-Ladies Mid-Mo","Columbia","USA","US/Canada",123,"https://www.meetup.com/rladies-mid-mo/",2019-12-15,15,1,"public",2021-04-27,38.9,-92.25
"829","R-Ladies Vitória","Vitória","Brazil","Latin America",208,"https://www.meetup.com/rladies-vitoria/",2019-09-29,4,0,"public",2021-04-28,-20.31,-40.31
"830","R-Ladies Dublin","Dublin","Ireland","Europe",852,"https://www.meetup.com/rladies-dublin/",2016-11-12,25,0,"public",2021-02-15,53.33,-6.25
"831","R-Ladies Belo Horizonte","Belo Horizonte","Brazil","Latin America",882,"https://www.meetup.com/rladies-belo-horizonte/",2018-04-20,18,0,"public",2021-05-26,-19.92,-43.94
"832","R-Ladies New York","New York","USA","US/Canada",2081,"https://www.meetup.com/rladies-newyork/",2016-08-23,61,1,"public",2021-07-21,40.75,-73.99
"833","R-Ladies Milan","Milano","Italy","Europe",1057,"https://www.meetup.com/rladies-milan/",2017-06-29,31,1,"public",2021-06-29,45.46,9.19
"834","R-Ladies Lexington Park","Lexington Park","USA","US/Canada",36,"https://www.meetup.com/rladies-lexington-park/",2019-08-16,2,0,"public",2020-12-15,38.27,-76.46
"835","R-Ladies Cuernavaca","Cuernavaca","Mexico","Latin America",523,"https://www.meetup.com/rladies-cuernavaca/",2019-08-15,12,0,"public",2021-05-06,18.92,-99.25
"836","R Ladies Aarhus","Aarhus","Denmark","Europe",24,"https://www.meetup.com/rladies-aarhus/",2020-11-20,1,0,"public",2021-06-16,56.16,10.2
"837","R-Ladies Cochabamba","Cochabamba","Bolivia","Latin America",13,"https://www.meetup.com/rladies-cochabamba/",2020-06-12,0,0,"public",1970-01-01,-17.38,-66.17
"838","R-Ladies Jujuy","Jujuy","Argentina","Latin America",133,"https://www.meetup.com/rladies-jujuy/",2020-11-20,1,0,"public",2020-12-21,-24.19,-65.3
"839","R-Ladies Austin","Austin","USA","US/Canada",638,"https://www.meetup.com/rladies-austin/",2017-01-31,45,0,"public",2020-01-22,30.22,-97.75
"840","R-Ladies Ankara","Ankara","Turkey","Europe",601,"https://www.meetup.com/rladies-ankara/",2019-07-01,16,0,"public",2021-03-23,39.93,32.85
"841","R-Ladies Ushuaia","Ushuaia","Argentina","Latin America",29,"https://www.meetup.com/rladies-ushuaia/",2020-05-16,3,0,"public",2020-12-07,-54.79,-68.31
"842","R-Ladies Den Bosch","Den Bosch","Netherlands","Europe",114,"https://www.meetup.com/rladies-den-bosch/",2019-03-23,7,0,"public",2021-04-28,51.7,5.3
"843","R-Ladies Bogor","Bogor","Indonesia","Asia",280,"https://www.meetup.com/rladies-bogor/",2019-04-07,8,0,"public",2020-02-29,-6.58,106.79
"844","R-Ladies Calgary","Calgary","Canada","US/Canada",166,"https://www.meetup.com/rladies-calgary/",2019-09-14,5,0,"public",2021-06-24,51.04,-114.06
"845","R-Ladies Podgorica","Podgorica","Montenegro","Europe",28,"https://www.meetup.com/rladies-podgorica/",2019-09-18,1,0,"public",2019-10-03,42.47,19.28
"846","R-Ladies Al-Khartum","al-Khartum","Sudan","Africa",48,"https://www.meetup.com/rladies-al-khartum/",2019-11-23,0,0,"public",1970-01-01,15.58,32.52
"847","R-Ladies Oxford Ohio","Oxford","USA","US/Canada",57,"https://www.meetup.com/rladies-oxford-ohio/",2019-11-23,4,0,"public",2021-03-03,39.49,-84.74
"848","R-Ladies Beijing","Beijing","China","Asia",57,"https://www.meetup.com/rladies-beijing/",2019-11-13,3,0,"public",2020-07-09,39.93,116.4
"849","R-Ladies Nelson","Nelson","New Zealand","Australia",18,"https://www.meetup.com/rladies-nelson/",2019-03-23,0,0,"public",1970-01-01,-41.29,173.24
"850","R-Ladies Lagos","Lagos","Nigeria","Africa",307,"https://www.meetup.com/rladies-lagos/",2019-08-16,3,0,"public",2020-02-22,6.45,3.47
"851","R-Ladies Floripa","Florianópolis","Brazil","Latin America",449,"https://www.meetup.com/rladies-florianopolis/",2019-04-07,8,0,"public",2020-02-19,-27.6,-48.54
"852","R-Ladies Queretaro","Querétaro","Mexico","Latin America",625,"https://www.meetup.com/rladies-queretaro/",2019-03-30,15,0,"public",2021-06-19,20.59,-100.4
"853","R-Ladies Eskisehir","Eskisehir","Turkey","Europe",226,"https://www.meetup.com/rladies-eskisehir/",2019-11-13,18,0,"public",2021-06-24,39.79,30.52
"854","R-Ladies Medellín","Medellín","Colombia","Latin America",559,"https://www.meetup.com/rladies-medellin/",2019-09-28,7,0,"public",2021-06-16,6.25,-75.59
"855","R-Ladies Pachuca","Pachuca","Mexico","Latin America",17,"https://www.meetup.com/rladies-pachuca/",2019-09-15,0,0,"public",1970-01-01,20.12,-98.76
"856","R-Ladies Galapagos Islands","Puerto Ayora","Ecuador","Pacific/Galapagos",288,"https://www.meetup.com/rladies-galapagos-islands/",2020-01-12,17,1,"public",2021-07-08,-0.74,-90.32
"857","R-Ladies Banda Aceh","Banda Aceh","Indonesia","Asia",36,"https://www.meetup.com/rladies-banda-aceh/",2020-06-24,2,0,"public",2020-11-29,5.55,95.32
"858","R-Ladies Barranquilla","Barranquilla","Colombia","Latin America",262,"https://www.meetup.com/rladies-barranquilla/",2020-05-02,10,1,"public",2021-07-08,11,-74.82
"859","R-Ladies Bangalore","Bangalore","India","Asia",157,"https://www.meetup.com/rladies-bangalore/",2020-08-12,9,1,"public",2021-04-25,12.97,77.56
"860","R-Ladies Thessaloníki","Thessaloníki","Greece","Europe",7,"https://www.meetup.com/rladies-thessaloniki/",2021-03-21,0,0,"public",1970-01-01,40.64,22.94
"861","R-Ladies Izmir","Izmir","Turkey","Europe",15,"https://www.meetup.com/rladies-izmir/",2021-02-12,0,0,"public",1970-01-01,38.43,27.15
"862","R-Ladies Göttingen","Göttingen","Germany","Europe",28,"https://www.meetup.com/rladies-gottingen/",2021-03-27,2,0,"public",2021-05-28,51.53,9.92
"863","R-Ladies Asunción","Asunción","Paraguay","Latin America",73,"https://www.meetup.com/rladies-asuncion/",2020-07-03,1,0,"public",2020-07-11,-25.3,-57.63
"864","R-Ladies Tunis","Tunis","Tunisia","Africa",1017,"https://www.meetup.com/rladies-tunis/",2020-05-15,45,0,"public",2021-07-08,36.84,10.22
"865","R-Ladies Milagro","Milagro","Ecuador","Latin America",126,"https://www.meetup.com/rladies-milagro/",2021-04-16,5,1,"public",2021-07-08,-2.18,-79.6
"866","R-Ladies Masqat","Muscat","Oman","Asia",142,"https://www.meetup.com/rladies-masqat/",2019-10-31,1,1,"public",2020-02-08,23.61,58.54
"867","R-Ladies Natal","Natal","Brazil","Latin America",413,"https://www.meetup.com/rladies-natal/",2020-06-07,10,0,"public",2021-06-24,-5.8,-35.22
"868","R-Ladies Algiers","al-Jaza´ir","Algeria","Africa",189,"https://www.meetup.com/rladies-algiers/",2020-05-02,3,0,"public",2020-11-24,36.77,3.04
"869","R-Ladies Curitiba","Curitiba","Brazil","Latin America",55,"https://www.meetup.com/rladies-curitiba/",2020-06-12,3,0,"public",2020-12-01,-25.42,-49.29
"870","R-Ladies Caracas","Caracas","Venezuela","Latin America",3,"https://www.meetup.com/rladies-caracas/",2021-06-21,0,0,"public",1970-01-01,10.54,-66.93
"871","R-Ladies Waltham","Waltham","USA","US/Canada",27,"https://www.meetup.com/rladies-waltham/",2020-07-03,1,0,"public",2020-11-13,42.4,-71.26
"872","R-Ladies Kuala Lumpur","Kuala Lumpur","Malaysia","Asia",16,"https://www.meetup.com/rladies-kuala-lumpur/",2020-11-23,0,0,"public",1970-01-01,3.16,101.71
"873","R-Ladies Ha Noi","Ha Noi","Vietnam","Asia",45,"https://www.meetup.com/rladies-ha-noi/",2020-02-16,0,0,"public",1970-01-01,21.03,105.84
"874","R-Ladies Aguascalientes","Aguascalientes","Mexico","Latin America",321,"https://www.meetup.com/rladies-aguascalientes/",2020-02-22,5,0,"public",2020-11-24,21.88,-102.3
"875","R-Ladies Brasília","Brasília","Brazil","Latin America",24,"https://www.meetup.com/rladies-brasilia/",2021-03-21,1,1,"public",2021-06-26,-15.78,-47.91
"876","R-Ladies Fortaleza","Fortaleza","Brazil","Latin America",107,"https://www.meetup.com/rladies-fortaleza/",2020-06-09,2,0,"public",2020-12-12,-3.78,-38.59
"877","R-Ladies Saudi Arabia (Dammam)","Dammam","Saudi Arabia","Asia",299,"https://www.meetup.com/rladies-dammam/",2020-11-20,7,0,"public",2021-06-21,26.42,50.09
"878","R-Ladies Glasgow","Glasgow","United Kingdom","Europe",61,"https://www.meetup.com/rladies-glasgow/",2020-06-24,2,0,"public",2021-03-12,55.86,-4.24
"879","R-Ladies Cordoba","Córdoba","Argentina","Latin America",32,"https://www.meetup.com/rladies-cordoba/",2020-05-14,3,0,"public",2020-12-07,-31.4,-64.19
"880","R-Ladies General Pico","General Pico","Argentina","Latin America",63,"https://www.meetup.com/rladies-general-pico/",2020-03-14,5,0,"public",2020-10-03,-35.66,-63.77
"881","R-Ladies Tijuana","Tijuana","Mexico","Latin America",48,"https://www.meetup.com/rladies-tijuana/",2020-08-24,2,0,"public",2020-09-25,32.53,-117.02
"882","R-Ladies Guadalajara","Guadalajara","Mexico","Latin America",800,"https://www.meetup.com/rladies-guadalajara/",2020-08-15,7,0,"public",2021-07-10,20.67,-103.35
"883","R-Ladies Concepción","Concepción","Chile","Latin America",571,"https://www.meetup.com/rladies-concepcion/",2019-04-16,39,0,"public",2021-07-15,-36.83,-73.05
"884","R-Ladies Comitán","Comitan","Mexico","Latin America",51,"https://www.meetup.com/rladies-comitan/",2021-03-27,1,0,"public",2021-05-25,16.25,-92.13
"885","R-Ladies Athens Greece","Athens","Greece","Europe",13,"https://www.meetup.com/rladies-athens-gr/",2021-03-21,0,0,"public",1970-01-01,37.98,23.73
"886","R-Ladies Talca","Talca","Chile","Latin America",179,"https://www.meetup.com/rladies-talca/",2020-05-14,14,0,"public",2021-07-15,-35.42,-71.66
"887","R-Ladies Bogotá","Bogotá","Colombia","Latin America",312,"https://www.meetup.com/rladies-bogota/",2017-09-22,9,0,"public",2021-05-06,4.63,-74.09
